Project Number,Project Name,Full Address,Latitude,Longitude,Legal Description,Project Manager,Project Status
RS19682,Dean - 10 Jack Boyd Drive,"10 Jack Boyd Drive, Mangawhai Heads, Mangawhai, 0573, New Zealand",0.0,0.0,,Logan Holt,Proposal
RS19681,Kayne - Tara Iti Fire Pit,"29 Tara Iti Drive, Mangawhai, Mangawhai, 0975, New Zealand",0.0,0.0,,Logan Holt,Proposal
RS19680,Jeff Heasley - 236 Western Hills Drive,"236 Western Hills Drive, Avenues, Whangārei, 0110, New Zealand",-35.716976,174.314743,,Codie Hay,Proposal
RS19679,Morgan Projects - 2A Millers Lane,"2A Millers Lane, Tikipunga, Whangārei, 0112, New Zealand",-35.702735,174.326721,,Daniel Squires,Proposal
RS19678,"Clint Scott-Davidson (Affordable Houses Ltd.) - 26 Tui Crescent, Maunu","26 Tui Crescent, Maunu, Whangārei, 0110, New Zealand",-35.740795,174.284286,,Matthew Jacobson,Active
RS19677,Barber - 153 Otaika Rd,"153 Otaika Road, Raumanga, Whangārei, 0110, New Zealand",-35.742816,174.308624,,Matthew Hargood,Proposal
RS19676,GJ Gardner -18 Montgomery Avenue - Mansell,"18 Montgomery Avenue, Onerahi, Whangārei, 0110, New Zealand",-35.74479,174.369217,,Codie Hay,Active
RS19675,"Sportsville Dargaville (Cato Bolam) – Pioneer Park, Dargaville","Pioneer Park, Sportsville Dargaville, Dargaville, Dargaville, New Zealand",-35.949077,173.860657,,Matthew Jacobson,Active
RS19674,"Nigel Banks - Lot 6 Shieling Road, Waipu","Lot 6 Shieling Road, Waipu, Waipu, 0582, New Zealand",-35.981857,174.402786,,Matthew Jacobson,Active
RS19673,Signature Homes - 81 Riding Downs Way,"81 Riding Downs Way, Maunu, Whangārei, 0179, New Zealand",-35.74929,174.240158,,Nathan Walker,Proposal
RS19672,Signature Homes - 62 Waitete Heights Lane,"62 Waitete Heights Lane, Kerikeri, Kerikeri, 0294, New Zealand",-35.188873,173.980942,,Nathan Walker,Proposal
RS19671,Lloyd-Jones - 90 Bank St,"90 Bank Street, City central, Whangārei, 0110, New Zealand",-35.723564,174.32,,Matthew Hargood,Proposal
RS19670,PCM - 67 Portland Rd,"67 Portland Road, Portland, 0178, New Zealand",-35.792503,174.309219,,Matthew Hargood,Proposal
RS19669,"Whangarei District Council - 2088 Whangarei Heads Road, Whangarei","2088 Whangarei Heads Road, Whangārei Heads, Whangārei Heads, 0174, New Zealand",0.0,0.0,,Matthew Jacobson,Active
RS19668,"Kaiikanui Hills Ltd (Reyburn & Bryant) - Peach Orchard Road & Russell Road, Hikurangi","21 & 27 Peach Orchard Road, Whakapara, Whakapara, 0184, New Zealand",0.0,0.0,,Matthew Jacobson,Active
RS19667,Easy Build - 831 Whareora Road,"831 Whareora Road, Whareora, Whareora, 0175, New Zealand",0.0,0.0,,Ariel Tudor,Proposal
RS19666,Slavich - 64 HATEA DRIVE,"64 Hatea Drive, Regent, Whangārei, 0112, New Zealand",-35.712982,174.325943,,Rachel Wright,Active
RS19665,Sandy Bottom Trust - 23 Percy Street,"23 Percy Street, Kensington, Whangārei, 0112, New Zealand",0.0,0.0,,Matthew Jacobson,Active
RS19664,GJ Gardner - 37a Manawa Drive,"37A Manawa Drive, Ngunguru, 0173, New Zealand",-35.634517,174.495682,,Codie Hay,Proposal
RS19663,GJ Gardner - 45 Kitemaunga Avenue,"Kitemaunga Avenue, Whangarei, 0118, New Zealand",-35.827304,174.457733,,Codie Hay,Active
RS19662,GJ Gardner - 8 Kakariki Road  Ngunguru Retirement Village,"8 Kakariki Road (lot 25), Ngunguru, 0173, New Zealand",0.0,0.0,,Codie Hay,Active
RS19661,"Drewery - 9 Powells Road, Cable Bay","9 Powells Road, Cable Bay, 0420, New Zealand",-34.991676,173.494522,,Codie Hay,Proposal
RS19660,Contag - 59 Taumatawiwi Street,"59 Taumatawiwi Street, Opononi, Opononi, 0473, New Zealand",-35.514236,173.391159,,David Platt,Active
RS19659,Pauline Oneill - 73 Sherwood Road Onerahi,"73 Sherwood Road, Onerahi, Whangārei, 0110, New Zealand",0.0,0.0,,Sarah Scott,Proposal
RS19658,Kerikeri Holdings - 9 Hobson Ave,"9 Hobson Avenue, Kerikeri, 0230, New Zealand",-35.22963,173.948212,,Matthew Hargood,Proposal
RS19657,Leathem - Rarotonga,"VAITAPU Pt Sec 32J3, Turoa, TAKITUMU, 682, Rarotonga",-21.264257,-159.771881,,Rachel Wright,Active
RS19656,"SW Engineering - 11 Norfolk Ave, Reotahi","11 Norfolk Avenue, Whangārei Heads, Whangārei Heads, 0174, New Zealand",0.0,0.0,,Ariel Tudor,Proposal
RS19655,"A & C Zazulak - 437 Whangarei Heads Road, Tamaterau","437 Whangarei Heads Road, Tamaterau, Tamaterau, 0174, New Zealand",0.0,0.0,,Sarah Scott,Proposal
RS19654,Signature Homes - 229 One Tree Point Road,"229 One Tree Point Road, One Tree Point, One Tree Point, 0118, New Zealand",0.0,0.0,,Nathan Walker,Proposal
RS19653,"Billy Garton (Arco Group) - 39 Rock Ridge Road, Kamo, Whangarei","39 Rock Ridge Drive, Te Kamo, Whangārei, 0112, New Zealand",0.0,0.0,,Matthew Jacobson,Active
RS19652,Lendrigan - 25 Seamore Rise,"25 Seamore Rise, Waipu, Waipu, 0582, New Zealand",0.0,0.0,,Liam Crawford,Proposal
RS19651,Retaining Wall Assessment - 17 Heather St,"17 Heather Street, Mangawhai Heads, Mangawhai, 0505, New Zealand",0.0,0.0,,Logan Holt,Proposal
RS19650,Wright - 44 Kiteone Rd,"44 Kiteone Road, Parua Bay, Parua Bay, 0174, New Zealand",0.0,0.0,,Liam Crawford,Active
RS19649,R+J - McAulay Construction - 9 Brighton Road,"9 Brighton Road, Kensington, Whangārei, 0112, New Zealand",-35.708057,174.327286,,Harry Lee,Proposal
RS19648,"Classic Builders - 1 Arrondi Terrace, Kotata","1 Arrondi Terrace, Port Whangārei, Whangārei, 0110, New Zealand",0.0,0.0,,Sarah Scott,Active
RS19647,"Simon and Jacki - 12 Moir Point Road, Mangawhai","12 Moir Point Road, Mangawhai Heads, Mangawhai, 0505, New Zealand",0.0,0.0,,Sarah Scott,Active
RS19646,"Whangarei Quarry Gardens - 37a Russell Road, Whangārei","37A Russell Road, Kensington, Whangārei, 0112, New Zealand",0.0,0.0,,Sarah Scott,Proposal
RS19645,Haigh Developments - 22 & 24 Keyte Street,"22 & 24 Keyte Street, Kensington, Whangārei, 0112, New Zealand",0.0,0.0,,Ariel Tudor,Proposal
RS19644,Hargood - 1 Sylvia Lane,"1 Sylvia Lane, Maunu, Whangārei, 0110, New Zealand",-35.752464,174.275223,,Matthew Hargood,Proposal
RS19643,"Clare McGlynn - 40 Seaview Road, Paihia","40 Seaview Road, Paihia, Paihia, 0200, New Zealand",-35.28924,174.096024,,Matthew Hargood,Proposal
RS19642,"Simon Mandeno (Mandeno Design Ltd) - 20 Te Arapuke Way, Ngunguru","20 Te Arapuke Way, Ngunguru, Ngunguru, 0173, New Zealand",0.0,0.0,,Matthew Jacobson,Active
RS19641,"Ashlee Crane - 218 Mine Road, Whakapara","218 Mine Road, Whakapara, Whakapara, 0182, New Zealand",0.0,0.0,,Sarah Scott,Proposal
RS19640,"Mark Haines and Karma Butler (Reyburn and Bryant) - 54 Mangakino Lane, Kauri","54 Mangakino Lane, Kauri, Kauri, 0185, New Zealand",0.0,0.0,,Matthew Jacobson,Active
RS19639,Clancey - 31 Halo Rise,"31 Halo Rise, Whareora, Whangarei, 0175, New Zealand",-35.703075,174.347382,,Matthew Hargood,Proposal
RS19638,"John + Janice Turner - 6 Marlin Drive, Taupo Bay","6 Marlin Drive, Taupō Bay, Taupō Bay, 0494, New Zealand",0.0,0.0,,Nathan Walker,Proposal
RS19637,"Easy Build - 14 Cullen Road, Waipu","14 Cullen Road, Waipu, Waipu, 0582, New Zealand",0.0,0.0,,Ariel Tudor,Proposal
RS19636,Chan - 59b Jack Boyd Drive,"59B Jack Boyd Drive, Mangawhai Heads, Mangawhai, 0573, New Zealand",0.0,0.0,,Logan Holt,Active
RS19635,Northland Masonic Villages - 87 Hokianga Road,"87 Hokianga Road, Dargaville, Dargaville, 0310, New Zealand",-35.93649,173.863358,,David Platt,Proposal
RS19634,"D Mungo - 15 Takahe St, Tikipunga","15 Takahe Street, Tikipunga, Whangārei, 0112, New Zealand",0.0,0.0,,Liam Crawford,Active
RS19633,Bream Bay College - Music Block Extension,"2 Peter Snell Road, Ruakākā, Ruakākā, 0116, New Zealand",0.0,0.0,,Liam Crawford,Active
RS17897,Denly - 5 Horizon View Place,"5 Horizon View Place, Mangawhai Heads, Mangawhai, 0505, New Zealand",-36.114635,174.59079,,David Platt,Active
RS19631,Easy Build - 119 Webb Road,"119 Webb Road, Helena Bay, Helena Bay, 0184, New Zealand",0.0,0.0,,Ariel Tudor,Proposal
RS19630,St Johns - Medical Centre - 29 York St Russell,"29 York Street, Russell, 0202, New Zealand",-35.260456,174.122223,,Matthew Hargood,Proposal
RS19629,Delete,"34 Breton Drive, Waipu, Waipu, 0510, New Zealand",-35.98028,174.445847,,Matthew Hargood,Not proceeding
RS19628,Andy Cooney - 13 Moana View,"13 Moana View, Raumanga, Whangārei, 0110, New Zealand",-35.745166,174.294632,,Matthew Hargood,Active
RS19627,Easy Build - 119 Webb Rd,"119 Webb Road, Helena Bay, Helena Bay, 0184, New Zealand",-35.43912,174.362274,,Matthew Hargood,Proposal
RS19626,Grant Davis - 7 Clark Mcconachy Place,"7 Clark Mcconachy Place, Raumanga, Whangārei, 0110, New Zealand",-35.756668,174.3093,,Matthew Hargood,Proposal
RS19625,Signature Homes - 58 Bream Bay Drive,"58 Bream Bay Drive, Ruakākā, Ruakākā, 0116, New Zealand",0.0,0.0,,Nathan Walker,Proposal
RS19624,Signature Homes - 70 Reotahi Road,"70 Reotahi Road, Whangārei Heads, Whangārei Heads, 0174, New Zealand",0.0,0.0,,Nathan Walker,Proposal
RS19623,"Pear Tree Farms Ltd (Reyburn & Bryant) - 29 Whittle Road, Springfield","29 Whittle Road, Springfield, Springfield, 0178, New Zealand",0.0,0.0,,Matthew Jacobson,Active
RS19622,Julie and Trevor Lewis - 6 Breton Drive,"6 Breton Drive, Waipu, 0510, New Zealand",-35.97955,174.447968,,Codie Hay,Active
RS19621,Arco Group - Riverview School (new classroom),"23 Riverview Road, Kerikeri, 0230, New Zealand",-35.2077,173.969238,,Codie Hay,Active
RS19620,Fowler Homes - 114 Barbados Way,"114 Barbados Way, One Tree Point, One Tree Point, 0118, New Zealand",-35.82599,174.454147,,David Platt,Active
RS19619,He Puna Marama Leadership Academy - 40-46 Herekino St,"40 Herekino Street, Whangārei, Whangārei, 0110, New Zealand",-35.7288,174.330124,,Rachel Wright,Proposal
RS19618,Signature Homes - JV Build - 82 Stace Hopper Dr,"82 Stace Hopper Drive, One Tree Point, One Tree Point, 0118, New Zealand",-35.834945,174.459915,,Harry Lee,Proposal
RS19617,Signature Homes - McMillian - 84 Stace Hopper Dr,"84 Stace Hopper Drive, One Tree Point, One Tree Point, 0118, New Zealand",-35.834945,174.459915,,Harry Lee,Proposal
RS19616,Catherine Lourme - 118A Golf Harbour Drive Maunu,"118A Golf Harbour Drive, Maunu, Whangārei, 0179, New Zealand",0.0,0.0,,Sarah Scott,Proposal
RS19615,Tanya Blong - 70a West View Cres Onerahi,"70a West View Cres Onerahi, New Zealand",0.0,0.0,,Sarah Scott,Active
RS19614,Gill - Lot 3 415 Crane Road,"415 Crane Road, Kauri, Kauri, 0185, New Zealand",0.0,0.0,,Sarah Scott,Proposal
RS19613,Coleman - 1941 Tangowahine Valley Road,"1941 Tangowahine Valley Road, Tangowahine, Tangowahine, 0372, New Zealand",0.0,0.0,,Sarah Scott,Proposal
RS19612,Shade Systems - Te Kapehu Whetu School - Tarewa Road,"Tarewa Road, Whangārei, 0110, New Zealand",0.0,0.0,,Matthew Jacobson,Active
RS19611,Homestead Trust (Reyburn & Bryant) - 322 Apotu Road,"322 Apotu Road, Kauri, Kauri, 0185, New Zealand",0.0,0.0,,Matthew Jacobson,Active
RS19610,Asher Tauri - 341 Tokiri Road Titoki,"341 Tokiri Road, Titoki, Titoki, 0172, New Zealand",0.0,0.0,,Nathan Walker,Proposal
RS19609,McQuinn - 825 Whareora Road,"825 Whareora Road, Whangārei, Whangārei, 0175, New Zealand",0.0,0.0,,Sarah Scott,Proposal
RS19608,Jonathan van Ameringen - 11 Kiteone Rd,"11 Kiteone Road, Parua Bay, Parua Bay, 0174, New Zealand",0.0,0.0,,Nathan Walker,Proposal
RS19607,Coleman Shed - Gibbs Rd,"Gibbs Road, Whakapara, Whakapara, 0182, New Zealand",-35.51171,174.25177,,Matthew Hargood,Unsuccessful
RS19606,Ash - 35A Valley Road,"35A Valley Road, Hikurangi, Hikurangi, 0114, New Zealand",-35.590137,174.28746,,David Platt,Proposal
RS19605,Generation Homes - 488 Whananaki Road,"488 Whananaki North Road, Opuawhanga, 0181, New Zealand",-35.535076,174.318466,,Codie Hay,Active
RS19604,Ridgeland Developments Ltd - 114 Austin Road,"114 Austin Road, Maunu, Whangārei, 0110, New Zealand",-35.75247,174.26976,,Codie Hay,Active
RS19603,Leightley - 8 Pegasus Lane,"8 Pegasus Lane, Waipu, Waipu, 0582, New Zealand",-36.039035,174.521591,,David Platt,Active
RS19602,Minchin-Hoelzl - 564C Ngunguru Road,"564C Ngunguru Road, Glenbervie, Glenbervie, 0173, New Zealand",-35.66046,174.385056,,David Platt,Proposal
RS19601,Signature Homes - 121 Tauraroa Road,"121 Tauraroa Road, Maungakaramea, Maungakaramea, 0178, New Zealand",0.0,0.0,,Nathan Walker,Proposal
RS19600,Reyburn and Bryant (Manaia View Farms) - Blue Horizon Road (RS18192),"Blue Horizon Road, Whangārei Heads, Whangārei Heads, 0174, New Zealand",0.0,0.0,,Matthew Jacobson,Active
RS19599,"Jason and Samaria Pearson - 153 Kara Road, Maungatapere","153 Kara Road, Maungatapere, Maungatapere, 0179, New Zealand",0.0,0.0,,Matthew Jacobson,Active
RS19598,"Advance Build - Access Road, Kerikeri","72 Access Road, Kerikeri, Kerikeri, 0230, New Zealand",0.0,0.0,,Matthew Jacobson,Active
RS19597,I & A Ferguson - 27 Mcauslin Rd,"27 Mcauslin Road, Matapouri, Matapouri, 0173, New Zealand",0.0,0.0,,Nathan Walker,Proposal
RS19596,Larkin - 5 Kapowai Place,"5 Kapowai Place, Whangārei, Whangārei, 0185, New Zealand",-35.64652,174.2809,,David Platt,Active
RS19595,IES - 14D School Rd,"14D School Road, Pahia, New Zealand",0.0,0.0,,Liam Crawford,Proposal
RS19594,Classic Builders - 1374A Pipiwai Road,"1374A Pipiwai Road, Ruatangata West, Ruatangata West, 0176, New Zealand",0.0,0.0,,Sarah Scott,Active
RS19593,Whangarei District Council - Urquharts Bay,"Urquharts Bay, Whangarei, New Zealand",0.0,0.0,,Matthew Jacobson,Active
RS19592,"Advance Build (Kissin) - 38 Moir Point Road, Mangawhai","38 Moir Point Road, Mangawhai Heads, Mangawhai, 0505, New Zealand",0.0,0.0,,Matthew Jacobson,Active
RS19591,Andrew Wade - 32-34 Herekino St,"32 Herekino Street, Whangārei, Whangārei, 0110, New Zealand",-35.7287,174.330032,,Rachel Wright,Proposal
RS19590,Classic Builders - 6 Kintrae Close Maunu,"6 Kintrae Close Maunu, New Zealand",0.0,0.0,,Sarah Scott,Active
RS19589,Alexandra Shed - 45 Windsor Road,"45 Windsor Way, Mangawhai, Mangawhai, 0975, New Zealand",0.0,0.0,,Logan Holt,Active
RS19588,De Rooy - 1850 Pataua North Road,"1850 Pataua North Road, Pataua North, Pataua North, 0175, New Zealand",-35.704284,174.5115,,David Platt,Active
RS19587,"B and K Goh - 811 Paradise Rd, Tangiteroria","811 Paradise Road, Tangiteroria, Tangiteroria, 0381, New Zealand",0.0,0.0,,Nathan Walker,Active
RS19586,Classic Builder - 7 Te Hihi Stream Lane Maunu,"7 Te Hihi Stream Lane, Maunu, Whangarei, 0179, New Zealand",0.0,0.0,,Sarah Scott,Active
RS19585,Ngaire Pehi - 235 Tutukaka Block Road,"235 Tutukaka Block Road, Whangarei, Whangarei, 0173, New Zealand",0.0,0.0,,Nathan Walker,Not proceeding
RS19584,"Windermere - 22 Kahikatearoa Lane, Waipapa","22 Kahikatearoa Lane, Waipapa, Waipapa, 0295, New Zealand",-35.212043,173.914932,,Rachel Wright,Active
RS19583,Signature Homes - 59 Champion Road,"59 Champion Road, Kaingaroa, Kaingaroa, 0482, New Zealand",0.0,0.0,,Nathan Walker,Active
RS19582,Darren Bowling - 72 Our Road,"72 Our Road, Whangārei Heads, Whangārei Heads, 0174, New Zealand",0.0,0.0,,Nathan Walker,Proposal
RS19581,Advance Developments - Admiral Way,"Admiral Way, Tutukaka, Tutukaka, 0173, New Zealand",-35.6118,174.523636,,Matthew Hargood,Active
RS19580,Beehre - 262 Kerr Road,"262 Kerr Road, Parua Bay, Parua Bay, 0192, New Zealand",-35.782882,174.521027,,David Platt,Active
RS19579,KDC - Dargaville Refuse Transfer Centre,"Victoria Street, Dargaville, Dargaville, 0310, New Zealand",-35.93777,173.874741,,David Platt,Proposal
RS19578,"AS Architecture - 78 Waiotahi Dr, Mangawhai","78 Waiotahi Drive, Mangawhai, Mangawhai, 0573, New Zealand",0.0,0.0,,Ariel Tudor,Proposal
RS19577,R+J - Taylor - 19 Galbraith st,"19 Galbraith Street, Matapouri, Matapouri, 0173, New Zealand",-35.562297,174.504623,,Harry Lee,Proposal
RS19576,"Waitomo Papakainga - 16 Puckey Ave, Kaitaia","16 Puckey Avenue, Kaitaia, Kaitaia, 0410, New Zealand",0.0,0.0,,Matthew Jacobson,Active
RS19575,Roberts - 340 Three Mile Bush Road,"340 Three Mile Bush Road, Te Kamo, Whangārei, 0185, New Zealand",-35.691394,174.266586,,David Platt,Active
RS19574,"Workman Properties - 5 Henry Going Way, Onerahi","5 Waverley Street, Onerahi, Whangārei, 0110, New Zealand",0.0,0.0,,Matthew Jacobson,Active
RS19573,Versatile - 14 Arahanga Road,"14 Arahanga Road, Paparoa, Paparoa, 0571, New Zealand",-36.098556,174.229675,,David Platt,Active
RS19572,Robinson - 35 Marlin Place,"35 Marlin Place, Tutukaka, Tutukaka, 0173, New Zealand",-35.607154,174.524017,,David Platt,Active
RS19571,Signature Homes - Lot 13 Waiata Lane,"Waiata Lane, Kauri, Kauri, 0185, New Zealand",0.0,0.0,,Nathan Walker,Proposal
RS19570,Vroegrijk - 8 Earls Place,"8 Earls Place, Onerahi, Whangārei, 0110, New Zealand",0.0,0.0,,Logan Holt,Proposal
RS19569,"Hayden Rad - 59 Ross Street, Onerahi","59 Ross Street, Onerahi, Whangārei, 0110, New Zealand",0.0,0.0,,Sarah Scott,Proposal
RS19568,Scott Blampied - 571 Ngunguru Road,"571 Ngunguru Road, Glenbervie, Glenbervie, 0173, New Zealand",0.0,0.0,,Sarah Scott,Active
RS19567,Wells - 1 Pah Rd,"1 Pah Road, Onerahi, Whangārei, 0110, New Zealand",0.0,0.0,,Liam Crawford,Active
RS19566,Marshall - 239 Jobe Road,"239 Jobe Road, Maungakaramea, Maungakaramea, 0178, New Zealand",-35.82171,174.275,,David Platt,Active
RS19565,Bentley - Lot 2 Clearwater Road,"143 Great North Road, Te Kamo, Whangārei, 0185, New Zealand",-35.662796,174.2911,,David Platt,Active
RS19564,B and M Collinson - 70 Waitangi Road,"70 Waitangi Road, Kiripaka, Kiripaka, 0173, New Zealand",0.0,0.0,,Nathan Walker,Active
RS19563,Tansey - 1516 Mangawhai Rd,"1516 Mangawhai Road, Mangawhai, Mangawhai, 0975, New Zealand",0.0,0.0,,Logan Holt,Active
RS19562,Ashbury Heights - 58 Pompallier Estate Dr,"58 Pompallier Estate Drive, Maunu, Whangārei, 0110, New Zealand",-35.74754,174.278351,,Daniel Squires,Not proceeding
RS19561,Andy and Kathryn Caulfield - 6 Bonnie Doon - #18922,"6 Bonnie Doon Place, Whangārei, 0185, New Zealand",-35.661407,174.322525,,Codie Hay,Active
RS19560,Byron Keoghan - 637 Ormandy Road,"637 Ormandy Road, Whangārei, 0178, New Zealand",-35.84283,174.287766,,Codie Hay,Active
RS19559,Kayla Thompson - 6 Collingwood Street,"6 Collingwood Street, Raumanga, Whangārei, 0110, New Zealand",-35.74088,174.310135,,Codie Hay,Proposal
RS19558,David Crang - 66 Cable Bay Block Road,"66 Cable Bay Block Road, Cable Bay, 0420, New Zealand",-34.99891,173.499863,,Codie Hay,Active
RS19557,Bruce Paton - 2454 State Highway 1,"2454 State Highway 1, Ruakākā, 0171, New Zealand",-35.887355,174.417282,,Codie Hay,Active
RS19556,Parua Bay Community Centre Development - 1341 Whangarei Heads Road,"1341 Whangarei Heads Road, Parua Bay, 0192, New Zealand",-35.76786,174.477676,,Codie Hay,Active
RS19555,Thorn - 6 St Andrews Place,"6 Saint Andrews Place, Te Kamo, Whangārei, 0112, New Zealand",0.0,0.0,,Logan Holt,Proposal
RS19554,Cafe Utopia Veranda - 1955 State Hway 1 Kaiwaka,"1955 State Highway 1, Kaiwaka, Kaiwaka, 0573, New Zealand",0.0,0.0,,Logan Holt,Active
RS19553,"Andrea & Stephen Purvis - Akerama Road, Hūkerenui","Akerama Road, Hūkerenui, Hūkerenui, 0182, New Zealand",0.0,0.0,,David Platt,Active
RS19552,NOT IN USE,"9 Saint Marys Place, Onerahi, Whangārei, 0110, New Zealand",0.0,0.0,,Matthew Jacobson,Proposal
RS19551,Hikurangi BNZ Building - 7 King Street HIKURANGI,"7 King Street, Hikurangi, Hikurangi, 0114, New Zealand",-35.600097,174.287216,,Rachel Wright,Proposal
RS19550,Darby - 16 Porowini Ave,"16 Porowini Avenue, Morningside, Whangārei, 0110, New Zealand",-35.730625,174.317963,,Matthew Hargood,Unsuccessful
RS19549,Gayleen & Bruce Guy - 33 Dolphin Place Ref#18541,"33 Dolphin Place, Tutukaka, 0173, New Zealand",-35.62863,174.537918,,Codie Hay,Construction
RS19548,Graham - 1536 Ngunguru Road,"1536 Ngunguru Road, Ngunguru, Ngunguru, 0173, New Zealand",-35.637714,174.46785,,David Platt,Active
RS19547,Audrey and Paul Bancroft - 6 Oyster Lane,"6 Oyster Lane, Parua Bay, 0174, New Zealand",-35.774498,174.482086,,Codie Hay,Active
RS19546,Phillipa Judge - 98 Pigs Head Road,"98 Pigs Head Road, Whakapara, 0184, New Zealand",-35.524776,174.302826,,Codie Hay,Active
RS19545,"David Bond - 6148 & 6162 State Highway 12, Dargaville (RS18634)",New Zealand,0.0,0.0,,Sarah Scott,Active
RS19544,Roman Doecke - 37 Cockburn Street Onerahi,"37 Cockburn Street, Onerahi, Whangārei, 0110, New Zealand",0.0,0.0,,Sarah Scott,Active
RS18639,Juan Robertson - 482 Kara Road,"482 Kara Road, Whangārei, Whangārei, 0179, New Zealand",-35.7077,174.202881,,Matthew Hargood,Proposal
RS19542,R+J - Lecky - 560 Three Mile Bush Rd,"560 Three Mile Bush Road, Te Kamo, Whangārei, New Zealand, Te Kamo, Whangārei, 0185, New Zealand",-35.6908,174.242462,,Harry Lee,Proposal
RS19541,Kauria Ruakaka - 597 Port Marsden Highway,"597 Port Marsden Highway, Ruakākā, Ruakākā, 0171, New Zealand",0.0,0.0,,Matthew Jacobson,Proposal
RS19540,"Kamo Home and Village - Saint Marys Place, Onerahi","Saint Marys Place, Onerahi, Whangārei, 0110, New Zealand",0.0,0.0,,Matthew Jacobson,Proposal
RS19539,Cotter - 15 Whareora Road,"15 Whareora Road, Kensington, Whangārei, 0112, New Zealand",-35.701625,174.328629,,Matthew Hargood,Active
RS19538,"BA & JK Paton Ltd - 430 Oneriri Road, Kaiwaka","430 Oneriri Road, Kaiwaka, Kaiwaka, 0573, New Zealand",0.0,0.0,,Matthew Jacobson,Proposal
RS19537,Green - 20D Ewing Road,"20D Ewing Road, Riverside, Whangārei, 0112, New Zealand",-35.72068,174.327728,,David Platt,Active
RS19536,Donaldson - 69 Brook Lane,"69 Brooke Lane, Mangawhai, Mangawhai, 0573, New Zealand",0.0,0.0,,Logan Holt,Active
RS19535,LM Consulting - Kaitaia College,"Redan Road, Kaitaia, Kaitaia, 0410, New Zealand",0.0,0.0,,Matthew Jacobson,Proposal
RS19534,"WDC (Reyburn and Bryant) - 6 Pearce Road, Whangarei","9 Pearce Drive, Te Kamo, Whangārei, 0112, New Zealand",0.0,0.0,,Matthew Jacobson,Active
RS19533,Winchcombe - Lot 6 271 Kerikeri Inlet Road,"271 Kerikeri Inlet Road, Kerikeri, Kerikeri, 0230, New Zealand",0.0,0.0,,Sarah Scott,Not proceeding
RS19532,"Lloyd - 113 Te Rongo Road, Parua Bay","113 Te Rongo Road, Parua Bay, Parua Bay, 0174, New Zealand",0.0,0.0,,Matthew Jacobson,Active
RS19531,Galbraith - 4 Mill Lane,"4 Mill Lane, Kerikeri, Kerikeri, 0230, New Zealand",-35.232883,173.953476,,David Platt,Not proceeding
RS19530,"Advance Build - Otamatea Marae - 97 Tanoa Rd, Otamatea","97 Tanoa Road, Maungaturoto, Maungaturoto, 0583, New Zealand",0.0,0.0,,Matthew Jacobson,Active
RS19529,GJ Gardner - 50 Second Avenue - Van Beek - Stage 2,"50 Second Avenue, Whangārei, 0110, New Zealand",-35.72804,174.312073,,Codie Hay,Active
RS19528,Hardley - 37 Cheviot Street,"37 Cheviot Street, Mangawhai Heads, Mangawhai, 0505, New Zealand",-36.104606,174.592834,,Liam Crawford,Active
RS19527,Johnson - 96 Walton St,"96 Walton Street, Whangārei, Whangārei, 0110, New Zealand",-35.72579,174.323334,,Liam Crawford,Active
RS19526,Architects H+K - Kaiwaka Primary School,"33 Kaiwaka Mangawhai Road, Kaiwaka, Kaiwaka, 0975, New Zealand",-36.159786,174.447083,,Liam Crawford,Active
RS19525,WDC  Whangarei Library - 5 Rust Ave,"5 Rust Avenue, Whangārei, 0110, New Zealand",-35.724197,174.31752,,Matthew Hargood,Proposal
RS19524,McKay Stadium - 97 Western Hills Dr,"97 Western Hills Drive, Kensington, Whangārei, 0112, New Zealand",-35.70804,174.312729,,Harry Lee,Proposal
RS19523,"Four Right Ltd (Jeremy Waldegrave) - 3688 SH14, Tangiteroria","3688 State Highway 14, Tangiteroria, Tangiteroria, 0381, New Zealand",0.0,0.0,,Matthew Jacobson,Active
RS18425,West - 3 Whangaumu Street,"3 Whangaumu Street, Tutukaka, Tutukaka, 0173, New Zealand",-35.633804,174.524673,,David Platt,Active
RS19521,"Fowler Homes - Burgoyne - 16 Mangakaretu Road, Waipapa","16 Mangakaretu Road, Waipapa, Waipapa, 0295, New Zealand",-35.23715,173.878922,,David Platt,Active
RS19520,Northcott - 582 Barrier View Road,"582 Barrier View Road, Mangawhai, Mangawhai, 0573, New Zealand",0.0,0.0,,Logan Holt,Active
RS19519,Hogg - 260B Awaroa River Road,"260B Awaroa River Road, Abbey Caves, Whangārei, 0110, New Zealand",-35.726242,174.3713,,David Platt,Active
RS19518,"Mandeno Design -13B Cross Street, Whangarei","13B Cross Street, Regent, Whangārei, 0112, New Zealand",0.0,0.0,,Matthew Jacobson,Proposal
RS19517,Te Rangi - 75 & 77 Old North Road,"75 Old North Road, Whakapara, Whakapara, 0182, New Zealand",-35.541866,174.275467,,Codie Hay,Active
RS19516,Mike Hanvey - 10 Chilcott Road,"10 Chilcott Road, Whananaki, Whananaki, 0181, New Zealand",-35.50665,174.461456,,Matthew Jacobson,Active
RS19515,Xudong Liu -58 Raumanga Valley Road,"58 Raumanga Valley Road, Raumanga, Whangārei, 0110, New Zealand",-35.73986,174.304138,,Matthew Jacobson,Proposal
RS19514,"Larnac Manuka NZ Ltd - 183 Kerr Road, Whangarei Heads","183 Kerr Road, Whangarei Heads, New Zealand",0.0,0.0,,Sarah Scott,Active
RS19513,"Goodhew - 69 Main Road, Kauri (mason street)","69 Main Road, Kauri, Kauri, 0185, New Zealand",0.0,0.0,,Sarah Scott,Active
RS18884,Ranwell - 13C Emay Crescent,"13C Emay Crescent, Pahi, Pahi, 0571, New Zealand",-36.156223,174.226135,,David Platt,Active
RS19511,"Te Maire Lands Ltd - 822 Te Maire Rd, Te Kopuru","822 Te Maire Road, Te Kōpuru, Te Kōpuru, 0371, New Zealand",0.0,0.0,,Matthew Jacobson,Active
RS19510,Proland Matters - 1 Simons St,"1 Simons Street, Kensington, Whangārei, 0112, New Zealand",-35.70686,174.319717,,Matthew Hargood,Defects/PS4
RS19509,Coenra - 9 Punga Grove Ave,"9 Punga Grove Avenue, Riverside, Whangārei, 0112, New Zealand",-35.723754,174.330551,,Matthew Hargood,Not proceeding
RS19508,"Sanders - 22A Princes Road, Ruakaka","22A Princes Road, Ruakākā, Ruakākā, 0116, New Zealand",0.0,0.0,,Matthew Jacobson,Active
RS19507,Arco - Omanaia School - Omanaia School Rd,"Omanaia School Road, Omanaia, Omanaia, 0473, New Zealand",-35.456835,173.524202,,Harry Lee,Active
RS19506,McLennan - 350 South Rd,"350 South Road, Waipu, Waipu, 0582, New Zealand",-36.0158,174.454544,,Matthew Hargood,Not proceeding
RS19505,"Weigh Northland Ltd - Allis Bloy Place, Ruakaka","Allis Bloy Place, Ruakākā, Ruakākā, 0171, New Zealand",0.0,0.0,,Matthew Jacobson,Active
RS19504,Fowler Homes - 117 Wairau Drive,"117 Wairau Drive, Tikipunga, Whangārei, 0112, New Zealand",-35.674797,174.322983,,David Platt,Active
RS19503,"Keller - 671 Opanake Road, Dargaville","Opanake Road, Mamaranui, Mamaranui, 0372, New Zealand",0.0,0.0,,Matthew Jacobson,Active
RS19502,FNDC - Slip Investigations - Mangamuka Road,"Mangamuka Road, Mangamuka, Mangamuka, New Zealand",0.0,0.0,,Matthew Jacobson,Proposal
RS19501,Drinnan - LOT 1 Durham Rd,"Durham Road, Waipu, Waipu, New Zealand",-36.043743,174.380951,,Liam Crawford,Active
RS19500,"Advance Build - 12 Arahanga Road, Paparoa","12 Arahanga Road, Paparoa, Paparoa, 0571, New Zealand",0.0,0.0,,Matthew Jacobson,Active
RS19499,Oto Group - Estuary Drive Mangawhai,"Estuary Drive, Northland, 0505, New Zealand",0.0,0.0,,Sarah Scott,Proposal
RS19498,"Peter and Robyn Lambourne - 16 Munro Place, Ngunguru","16 Munro Place, Ngunguru, New Zealand",0.0,0.0,,Sarah Scott,Proposal
RS19497,Edwards - 5 Rose Place,"5 Rose Place, Te Kamo, Whangārei, 0112, New Zealand",0.0,0.0,,David Platt,Active
RS19496,MOE - Purua School - Mandeno Design - 20 Irvine Road,"20 Irvine Road, Purua, Purua, 0176, New Zealand",0.0,0.0,,Matthew Jacobson,Active
RS19495,McAulay - 102 Nova Scotia Drive,"102 Nova Scotia Drive, Waipu, Waipu, New Zealand",0.0,0.0,,David Platt,Proposal
RS19494,EasyBuild - 2A Jessie Street,"2 Jessie Street, Parahaki, Whangārei, 0112, New Zealand",0.0,0.0,,David Platt,Active
RS19493,Kieran Hammond - 219 Portland Rd,"219 Portland Road, Portland, Portland, 0178, New Zealand",0.0,0.0,,Nathan Walker,Active
RS19492,Paterson Balfour - 2116 Cove Road,"2116 Cove Road, Mangawhai, Mangawhai, 0573, New Zealand",0.0,0.0,,David Platt,Active
RS19491,Rathmony - 116 Broadway,"116 Broadway, Kaikohe, 0405, New Zealand",-35.406993,173.80043,,Matthew Hargood,Not proceeding
RS19490,Easy Build - 4 Starlight Pl,"4 Starlight Place, Langs Beach, Waipu, 0582, New Zealand",0.0,0.0,,Matthew Hargood,Active
RS19489,Easy Build - 2A Jessie St,"2 Jessie Street, Parahaki, Whangārei, 0112, New Zealand",0.0,0.0,,Matthew Hargood,Complete
RS19488,"Advance Build - Raika - 25 Jordan Street, Mangawhai","25 Jordan Street, Mangawhai Heads, Mangawhai, 0505, New Zealand",0.0,0.0,,Matthew Jacobson,Active
RS19487,DHS - 9 Fantail Ln,"9 Fantail Lane, Whangārei, 0175, New Zealand",0.0,0.0,,Matthew Hargood,Defects/PS4
RS19486,Signature Homes - Overwater 2 Pipi Pl,"2 Pipi Place, Baylys Beach, Baylys Beach, 0377, New Zealand",0.0,0.0,,Nathan Walker,Not proceeding
RS19485,Signature Homes - Smeath 441 Rangiputa Rd,"441 Rangiputa Road, Karikari Peninsula, Karikari Peninsula, 0483, New Zealand",0.0,0.0,,Nathan Walker,Not proceeding
RS19484,Signature Homes - Todd 169 Millington Rd,"169 Millington Road, Maunu, Whangārei, 0179, New Zealand",0.0,0.0,,Nathan Walker,Active
RS18316,Matthews - 882 Snooks Road,"882 Snooks Road, Maungakaramea, Maungakaramea, 0178, New Zealand",0.0,0.0,,David Platt,Active
RS19482,Halse - 98 Takahiwai Road,"98 Takahiwai Road, Ruakākā, Ruakākā, 0171, New Zealand",0.0,0.0,,David Platt,Active
RS19481,Signature Homes - 11 Lumbarda Lane,"11 Lumbarda Lane, Maunu, Whangārei, 0110, New Zealand",0.0,0.0,,Nathan Walker,Active
RS19480,Croft - 34 Owai Avenue,"34 Owai Avenue, Helena Bay, Helena Bay, 0184, New Zealand",0.0,0.0,,David Platt,Active
RS19479,Signature Homes - Lot 375 (The Landing),"9 Te Taniwha Road, Whangārei, Whangārei, 0118, New Zealand",0.0,0.0,,Nathan Walker,Active
RS19478,Signature Homes - Lot 370 (The Landing),"21 Te Taniwha Road, Whangārei, Whangārei, 0118, New Zealand",0.0,0.0,,Nathan Walker,Active
RS19477,Signature Homes - Lot 236 (The Landing),"Kitemaunga Avenue, Marsden Bay, Marsden Bay, 0118, New Zealand",0.0,0.0,,Nathan Walker,Active
RS19476,Signature Homes - Ward 47 Kitemaunga Ave OTP,"Kitemaunga Avenue, Marsden Bay, Marsden Bay, 0118, New Zealand",0.0,0.0,,Nathan Walker,Active
RS19475,Zieleman - 19A South Rd,"19A South Road, Waipu, Waipu, 0510, New Zealand",0.0,0.0,,Liam Crawford,Active
RS19474,Lansdown - 29A Marsden Point Road,"29A Marsden Point Road, Ruakākā, Ruakākā, 0116, New Zealand",0.0,0.0,,David Platt,Active
RS19473,"Advance Build - Smart - 173 Matapouri Road, Tutukaka","173 Matapouri Road, Tutukaka, Tutukaka, 0173, New Zealand",0.0,0.0,,Matthew Jacobson,Active
RS19472,Vickers - 31 Golf Harbour Drive,"31 Golf Harbour Drive, Maunu, Whangārei, 0179, New Zealand",0.0,0.0,,David Platt,Active
RS19471,"Ministry of Architecture - 1-9 Derrick Road, Kawakawa Bay of Islands College -","Derrick Road, Kawakawa, Kawakawa, 0210, New Zealand",0.0,0.0,,Matthew Jacobson,Active
RS19470,"Graham Taylor - 1638 State Highway 12, Paparoa","1638 State Highway 12, Paparoa, Paparoa, 0583, New Zealand",0.0,0.0,,Sarah Scott,Active
RS19469,"Advance Build - 113 Cable Bay Block Rd, Cable Bay","113 Cable Bay Block Road, Cable Bay, Cable Bay, 0420, New Zealand",0.0,0.0,,Matthew Jacobson,Active
RS19468,"Angela Atkins & Bill Sweeney - 769 Otaika Valley Road, Whangarei","769 Otaika Valley Road, Maungatapere, Maungatapere, 0170, New Zealand",0.0,0.0,,Liam Crawford,Active
RS19467,"Roxy & Glen McGaveston - 10 Northcroft Drive, Whangarei","10 Northcroft Drive, Te Kamo, Whangarei, 0176, New Zealand",0.0,0.0,,Matthew Jacobson,Active
RS19466,GJ Gardner - 76 Maturiki Drive- Joblin,"76 Maturiki Drive, Ruakākā, 0118, New Zealand",0.0,0.0,,Codie Hay,Active
RS19465,Stewart - Lot 4 Jessie Street,"6 Jessie Street, Parahaki, Whangārei, 0112, New Zealand",0.0,0.0,,David Platt,Proposal
RS19464,Kahn - 129 Raumanga Heights Drive,"129 Raumanga Heights Drive, Raumanga, Whangārei, 0110, New Zealand",0.0,0.0,,David Platt,Not proceeding
RS19463,Greenstar Properties - Kensington Ave Development,"Kensington Avenue, Kensington, Whangārei, 0112, New Zealand",0.0,0.0,,Sarah Scott,Active
RS19462,DNX Architects - 58b Raumange Valley Rd,"58 Raumanga Valley Road, Raumanga, Whangārei, 0110, New Zealand",0.0,0.0,,Liam Crawford,Bid unsuccessful
RS19461,GJ Gardner - 13 Leeward Terrace,"13 Leeward Terrace, Port Whangārei, Whangārei, 0110, New Zealand",0.0,0.0,,Liam Crawford,Active
RS19460,"Classic Builders - 4 Jean Edwards Place, Kotata Heights","4 Jean Edwards Place, Raumanga, Whangārei, 0110, New Zealand",0.0,0.0,,Sarah Scott,Active
RS19459,"Signature Homes - 67 Church Street, Onerahi","67 Church Street, Onerahi, Whangārei, 0110, New Zealand",0.0,0.0,,Nathan Walker,Not proceeding
RS19458,"Ketenikau Developments - (Stage 2) 41 Ketenikau Road, Whangarei (RS19110)","41 Ketenikau Road, Te Kamo, Whangārei, 0112, New Zealand",0.0,0.0,,Sarah Scott,Active
RS19457,Bloore - 4 Berghan Rd,"4 Berghan Road, Coopers Beach, Coopers Beach, 0420, New Zealand",0.0,0.0,,Matthew Hargood,Active
RS19456,RWTS - Precast Tank Mould,"948 State Highway 16, Waimauku, Waimauku, 0812, New Zealand",0.0,0.0,,Daniel Squires,Not proceeding
RS19455,DHS - 2B Jessie St,"2 Jessie Street, Parahaki, Whangārei, 0112, New Zealand",0.0,0.0,,Matthew Hargood,Proposal
RS19454,Kirkman - 43 Percy Street,"43 Percy Street, Whau Valley, Whangārei, 0112, New Zealand",0.0,0.0,,David Platt,Active
RS19453,"WDC - Albany Road, Marsden Point - Seawall","Albany Road, One Tree Point, One Tree Point, 0118, New Zealand",0.0,0.0,,Matthew Jacobson,Active
RS19452,DHS Seismic - 3 Morningside Rd,"3 Morningside Road, Morningside, Whangārei, 0110, New Zealand",0.0,0.0,,Matthew Hargood,Proposal
RS19451,Leisa Henwood - 116 & 118 Marsden Road Paihia,"118 Marsden Road, Paihia, 0200, New Zealand",0.0,0.0,,Sarah Scott,Active
RS19450,Signature Homes - Judd Road,"1 Judd Road, Maungaturoto, Maungaturoto, 0520, New Zealand",0.0,0.0,,Nathan Walker,Active
RS19449,"Signature Homes -2 Pipi Place, Baylys Beach","2 Pipi Place, Baylys Beach, Baylys Beach, 0377, New Zealand",0.0,0.0,,Nathan Walker,Job cancelled
RS19448,Cellini's - 1 Williams Rd Paihia,"1 Williams Road, Paihia, Paihia, 0200, New Zealand",0.0,0.0,,Logan Holt,Proposal
RS19447,Lyndon and Jane Boakes - 34A Whaka Street,"34A Whaka Street, Maungaturoto, Maungaturoto, 0520, New Zealand",0.0,0.0,,Codie Hay,Active
RS19446,Stuart - 191 Hupara Rd,"191 Hupara Road, Pakaraka, Pakaraka, 0472, New Zealand",0.0,0.0,,Matthew Hargood,Proposal
RS19445,Prinsep - 17 Bank St,"17 Bank Street, Whangārei, 0110, New Zealand",0.0,0.0,,Matthew Hargood,Proposal
RS19444,Howard and Jill Smith - 101b Hone Heke Road,"101B Hone Heke Road, Kerikeri, 0230, New Zealand",0.0,0.0,,Codie Hay,Active
RS19443,Classic Builders - Stage 6 Glenbervie Park,"Glenbervie Park Stage 6, New Zealand",0.0,0.0,,Sarah Scott,Active
RS19442,Ridling & Mulloy - 34 Breton Drive,"34 Breton Drive, Waipu, Waipu, 0510, New Zealand",0.0,0.0,,David Platt,Waiting on client/architect
RS19441,"Grant Croft - 39 Kamo Road, Whangarei","39 Kamo Road, Regent, Whangārei, 0112, New Zealand",0.0,0.0,,Sarah Scott,Active
RS19440,Versatile - 6 Onemama Street,"6 Onemama Street, Portland, Portland, 0178, New Zealand",0.0,0.0,,David Platt,Active
RS19439,"Andrew Gordon - 30 Bigelow Road, Tangiteroria","30 Bigelow Road, Tangiteroria, Tangiteroria, 0381, New Zealand",0.0,0.0,,Matthew Jacobson,Active
RS19438,Signature Homes - West 12 Christine Dr,"12 Christine Drive, Coopers Beach, Coopers Beach, 0420, New Zealand",0.0,0.0,,Nathan Walker,Active
RS19437,Classic Builders - 139 Whaka Street Maungaturoto,"139 Whaka Street, Maungaturoto, 0520, New Zealand",0.0,0.0,,Sarah Scott,Not proceeding
RS19436,"Coutts - 9B Tawhai Pl, Parahaki","9B Tawhai Place, Parahaki, Whangārei, 0112, New Zealand",0.0,0.0,,Sarah Scott,Active
RS19435,"Kaiwaka Can Inc - McClean Park, Kaiwaka","7 Gibbons Road, Kaiwaka, Kaiwaka, 0573, New Zealand",-36.160246,174.443303,,Matthew Jacobson,Active
RS19434,Tony McElwee - Mangakaretu Lot 6 (RS18085),"Mangakaretu Road, Ōkaihau, 0295, New Zealand",0.0,0.0,,Sarah Scott,Active
RS19433,Gardiner - 155 Cemetery Rd,"155 Cemetery Road, Maunu, Whangārei, 0179, New Zealand",0.0,0.0,,Matthew Hargood,Proposal
RS19432,Hashimoto - 127 Hurndall St East,"127 Hurndall Street East, Maungaturoto, Maungaturoto, 0520, New Zealand",0.0,0.0,,Matthew Hargood,Active
RS19431,Steve Aschebrock - 56 Tapeka Road,"56 Tapeka Road, Russell, 0202, New Zealand",0.0,0.0,,Codie Hay,Active
RS19430,"David Beecroft - 60 Bream Bay Drive, Ruakaka","60 Bream Bay Drive, Ruakākā, Ruakākā, 0116, New Zealand",0.0,0.0,,Matthew Jacobson,Active
RS19429,WDC - Waiarohia Erosion - 27 Rust Ave - Kowhai Court,"27 Rust Avenue, Whangārei, Whangārei, 0110, New Zealand",0.0,0.0,,Matthew Jacobson,Active
RS19428,"Ellie Gwilliam - 11 Beach Road, Reotahi","11 Beach Road, Whangārei Heads, Whangārei Heads, 0174, New Zealand",0.0,0.0,,Matthew Jacobson,Active
RS19427,Graham - 24 Morrison Rd,"24 Morrison Road, Matapouri, 0173, New Zealand",0.0,0.0,,Matthew Hargood,Active
RS19426,Reiher - 10 Waiwarawara Drive,"10 Waiwarawara Drive, Ruakākā, Ruakākā, 0171, New Zealand",0.0,0.0,,Liam Crawford,Not proceeding
RS19425,CBM Northland - 25 Gillies St,"25 Gillies Street, Kawakawa, 0210, New Zealand",0.0,0.0,,Matthew Hargood,Proposal
RS19424,"Arco Group - MoE Classrooms (River View, Bay of Islands, Dargaville, Taipa, Omania)","6 Springs Flat Road, Whangārei, 112",0.0,0.0,,Matthew Jacobson,Active
RS19423,"Simpson & Capon - 7 Taurangawaka Road, One Tree Point","7 Taurangawaka Road, Whangarei, Whangarei, 0118, New Zealand",0.0,0.0,,Rachel Wright,Not proceeding
RS19422,"Classic Builders - Ly & Ang - 1 Mystic Close, Kotata Heights","1 Mystic Close, Port Whangārei, Whangārei, 0110, New Zealand",0.0,0.0,,Sarah Scott,Active
RS19421,Matariki Traders - 105A Onerahi Rd,"105 Onerahi Road, Onerahi, Whangārei, 0110, New Zealand",0.0,0.0,,Matthew Hargood,Proposal
RS19420,DHS - 5 Dent St,"5 Dent Street, Whangārei, 0110, New Zealand",0.0,0.0,,Matthew Hargood,Bid unsuccessful
RS19419,Signature Homes - Owbridge 23 Manaia View Rd,"23 Manaia View Road, One Tree Point, 0118",0.0,0.0,,Nathan Walker,Not proceeding
RS19418,Stronge - 143 Edge Rd Grahams Bay,"143 Edge Road, Grahams Bay, Whananaki, 0181",0.0,0.0,,Logan Holt,Bid unsuccessful
RS19417,Kauri  - 28 Ascot Ave,"28 Ascot Avenue, Te Kamo, Whangārei, 0112",-35.67556,174.31102,,Matthew Hargood,Not proceeding
RS19416,Renouf - 588 Pahi Road,"588 Pahi Road, Pahi, 0571",0.0,0.0,,Ryan Jenner,Active
RS19415,Davey - 1327 Ngunguru Road,"1327 Ngunguru Road, Kiripaka, 0173",0.0,0.0,,Sarah Scott,Active
RS19414,MOE - Whau Valley School - 17 Moody Ave,"17 Moody Avenue, Whau Valley, Whangārei, 0112",-35.701145,174.316681,,Harry Lee,Active
RS19413,Robertson - 482 Kara Rd,"482 Kara Road, Maungatapere, Whangārei, 0179",-35.7077,174.202881,,Matthew Hargood,Complete
RS19412,Mannion - 34 Morningside Rd,"34 Morningside Road, Morningside, Whangārei, 0110",-35.734085,174.3194,,Matthew Hargood,Unsuccessful
RS18264,Gordon - 14 Arahanga Road,"14 Arahanga Road, Paparoa, 0571",-36.098556,174.229675,,David Platt,Proposal
RS17977,Martin - 96 Owhiwa Road,"96 Owhiwa Road, Parua Bay, Parua Bay, 0192, New Zealand",-35.758785,174.455383,,David Platt,Active
RS19409,Heumann - 47 Stuart Rd,"47 Stuart Road, Whangārei Heads, 0174",-35.817398,174.499466,,Matthew Hargood,Complete
RS19408,"Classic Builders - Witcombe - 14 Riversong Road, Kauri","14 Riversong Road, Kauri, 0185",0.0,0.0,,Sarah Scott,Active
RS19407,"Fire Report - 3 North Road, Kawakawa","3 North Road, Kawakawa, Kawakawa, 0210, New Zealand",-35.376506,174.0726,,Rachel Wright,Complete
RS19406,"Classic Builders - Taylor 605 Ngunguru Road, Glenbervie","605 Ngunguru Road, Glenbervie, 0173",0.0,0.0,,Sarah Scott,Active
RS19405,"Dean Robinson - Sills Road, Arapohue","Sills Road, Arapohue, Northland, 0370",-36.01505,173.962021,,Codie Hay,Not proceeding
RS19404,Advance Build - Otamatea Marae,"97 Tanoa Road, Maungaturoto, 0583",-36.207653,174.342422,,Matthew Jacobson,Job cancelled
RS19403,Whangarei District Council - Ruakaka Cemetery,"Thomas Henry Rise, Ruakākā, 0171",-35.865783,174.436188,,Matthew Jacobson,Active
RS19402,Steve Erai - 24 De L’isle Lane,"24 De Lisle Lane, Maungatapere, 0179",0.0,0.0,,Codie Hay,Not proceeding
RS19401,"Shane and Georgina Bruhns - 28 Whangaumu Street, Tutukaka","28 Whangaumu Street, Tutukaka, Tutukaka, 0173, New Zealand",0.0,0.0,,Matthew Jacobson,Active
RS19400,Allan Nutt - 51B Mains Ave,"51B Mains Avenue, Kensington, Whangārei, 0112",-35.70171,174.322083,,Harry Lee,Complete
RS19399,Tristan & Michelle Saunders - 22A Princes Rd,"22A Princes Road, Ruakākā, 0116",0.0,0.0,,Matthew Jacobson,Active
RS19398,Meredith (18364) - 1065 Whangarei Heads Rd,"1065 Whangarei Heads Road, Parua Bay, Parua Bay, 0174, New Zealand",0.0,0.0,,Nathan Walker,Active
RS19397,Versatile - 29B Marsden Point Road,"29B Marsden Point Road, Ruakākā, Ruakākā, 0116, New Zealand",-35.9024,174.449112,,David Platt,Active
RS19396,S Ajani - 1630 Matapouri Road,"1630 Matapouri Road, Matapouri, Matapouri, 0173, New Zealand",-35.570407,174.4531,,Ryan Jenner,Active
RS19395,"Martin (Sunshine Homes) - 12 Lincoln Place, Kamo","12 Lincoln Place, Te Kamo, Whangārei, 0112, New Zealand",0.0,0.0,,Ariel Tudor,Complete
RS19394,Signature Homes - Bloxwich,"810 Whangaruru North Road, Whangaruru, Whangaruru, 0184, New Zealand",0.0,0.0,,Nathan Walker,Active
RS19393,"Solid Holdings - Industrial Way, Waipapa","Industrial Way, Waipapa, Waipapa, New Zealand",0.0,0.0,,Sarah Scott,Active
RS19392,Archibald - 550 Quarry Road,"550 Quarry Road, Kaitaia, Kaitaia, 0482, New Zealand",0.0,0.0,,Matthew Jacobson,Active
RS18750,Gribble - 15 Cliff Street,"15 Cliff Street, Onerahi, Whangārei, 0110",0.0,0.0,,David Platt,Active
RS19390,Archibald - Salvation Road,"Salvation Road, Whangaroa",0.0,0.0,,Matthew Jacobson,Active
RS19389,FNH Warehouse - PIPIWAI ROAD TE KAMO WHANGAREI,"Pipiwai Road, Te Kamo, Whangārei",-35.669414,174.242813,,Rachel Wright,Bid unsuccessful
RS19388,WDC - BC Regulatory Reviews,"Various, Whangarei District",0.0,0.0,,Rachel Wright,Active
RS19387,GJ Gardner - 10 Hauhou Lane - Browning,"10 Hauhou Lane, Marsden Cove, 0118, New Zealand",-35.837772,174.460526,,Liam Crawford,Active
RS19386,"Diamond Laundry Group - 118, 120 Onerahi Rd","120 Onerahi Road, Onerahi, Whangārei, 0110",-35.755294,174.368118,,Rachel Wright,Complete
RS19385,Carswell - 13 Lang Road,"13 Lang Road, Langs Beach, 0582",0.0,0.0,,Sarah Scott,Proposal
RS19384,Versatile - 323 Owhiwa Road,"323 Owhiwa Road, Parua Bay, 0192",-35.752075,174.4365,,David Platt,Active
RS19383,Versatile - 208 Molesworth Drive,"208 Molesworth Drive, Mangawhai Heads, 0505",-36.09933,174.588257,,David Platt,Active
RS19382,"Dawson - 9 Te Uru Lane, Kerikeri","9 Te Uru Lane, Kerikeri, 0230",0.0,0.0,,Ariel Tudor,Not proceeding
RS19381,"Far North Holding Marina Retail - 7 Baffin St, Opua (ref 14147)","7 Baffin Street, Opua, 0200",-35.31529,174.1193,,Rachel Wright,Complete
RS19380,GJ Gardner - D'Ath - 109a King Street,"109A King Street, Hikurangi, 0114",-35.59132,174.282883,,Codie Hay,Active
RS19379,Classic Builders - 33 Lumbarda Lane,"33 Lumbarda Lane, Maunu, Whangarei",0.0,0.0,,Sarah Scott,Active
RS19378,Montre Vue Family Trust (RS18433),"1160 State Highway 12, Maungaturoto, 0583",0.0,0.0,,Sarah Scott,Not proceeding
RS19377,"Classic Builders - 7 Marjorie Lane, Lot 3","7 Marjorie Lane, Kensington, Whangarei",0.0,0.0,,Sarah Scott,Active
RS19376,Advance Build - 1228a Bull Road - Birt,"1228A Bull Road, Paparoa, 0193",-36.036903,174.230743,,Codie Hay,Active
RS19375,"GJ Gardner - 5 Grand Hills Lane, Maunu - Zhang","5 Grand Hills Lane, Maunu, Whangārei, 0179, New Zealand",-35.738304,174.243942,,Codie Hay,Active
RS19374,GJ Gardner - 1200 Cove Road - McCullough,"1200 Cove Road, Langs Beach, 0582, New Zealand",-36.043796,174.531616,,Liam Crawford,Active
RS19373,Clements - Kintrae Close,"Kintrae Close, Maunu, Whangārei",-35.749472,174.269611,,Matthew Hargood,Active
RS19372,D and B Molan - 928 Whangarei Heads Rd,"928 Whangarei Heads Road, Parua Bay, 0174",0.0,0.0,,Nathan Walker,Active
RS19371,Harris - 192 Awakino Point East Road,"192 Awakino Point East Road, Awakino Point, 0372",0.0,0.0,,Rachel Wright,Complete
RS19370,Fortune - 439 Franklin Road,"439 Franklin Road, Paparoa, 0571",-36.084266,174.23613,,David Platt,Construction
RS19369,GJ Gardner - 11 Mackie Place - McMath,"11 Mackie Place, Matapouri, New Zealand, Matapouri, Whangarei, 0173",-35.567195,174.504913,,Liam Crawford,Active
RS19368,Te Kura O Waikare Library - Waikare (18624),"Waikare Valley Road, Waikare",0.0,0.0,,Logan Holt,Construction
RS19367,Classic Builders - Hill - 8 Stonedale Way,"8 Stonedale Way, Te Kamo, Whangārei, 0185",-35.69493,174.2655,,Sarah Scott,Active
RS19366,Penny King - 46 Station Rd,"46 Station Road, Te Kamo, Whangārei, 0112",0.0,0.0,,Codie Hay,Active
RS19365,Northern Projects - 9 Otuhiwai Crescent,"9 Otuhiwai Crescent, Tikipunga, Whangārei, 0112",-35.688163,174.3279,,Codie Hay,Active
RS19364,Pepper - 81A Mackesy Road,"81A Mackesy Road, Parahaki, Whangārei, 0112",-35.73199,174.354,,David Platt,Active
RS19363,GJ Gardner - Conner 13 Aarts Place,"13 Aarts Place, One Tree Point, 0118",-35.831203,174.467026,,Liam Crawford,Proposal
RS19362,Piper - 47 Orangewood Rd,"47 Orangewood Road, Kerikeri, 0294",-35.189415,173.945892,,Matthew Hargood,Active
RS19361,Buildengdesign - 52b Tauranga Bay Beach Road,"52B Tauranga Bay Beach Road, Kaeo, 0478",0.0,0.0,,Sarah Scott,Active
RS19360,"CPSC Ltd - The Landing (Lots 218, 219, 220)","Korimako Lane, One Tree Point, Whangarei, 0118",0.0,0.0,,Codie Hay,Complete
RS19359,MacLean - 37 Taumata Rd,"37 Taumata Road, Taipa, 0483",-35.018997,173.416565,,Matthew Hargood,Bid unsuccessful
RS19358,LM Farms Ltd - 455 West Coast Road,"455 West Coast Road, Te Kōpuru, 0371",-36.04176,173.880219,,David Platt,Active
RS19357,Signature Homes - Searle Trust,"1243 State Highway 12, Northland, 0373",0.0,0.0,,Nathan Walker,Active
RS19356,Dean - 80 James Road,"80 James Road, Te Kamo, Whangārei, 0185",-35.694736,174.228683,,David Platt,Active
RS19355,Mitchell - 16 Graham St,"16 Graham Street, One Tree Point, 0118",-35.82636,174.459763,,Matthew Hargood,Active
RS19354,"Batten - 118 Broadway, Kaikohe","118 Broadway, Kaikohe, 0405",-35.407321,173.800278,,Rachel Wright,Complete
RS19353,Classic Builders - 6 Rock Ridge Dr,"6 Rock Ridge Drive, Te Kamo, Whangārei, 0112",0.0,0.0,,Sarah Scott,Active
RS19352,Lobo - 4 Dakota Place,"4 Dakota Place, Raumanga, Whangārei, 0110",-35.745655,174.310043,,Sarah Scott,Complete
RS19351,Barclay - Lot 5 Cranston Lane,"Lot 5 Cranston Lane, Whareora, New Zealand, Whareora, 0175",-35.689762,174.400864,,Sarah Scott,Active
RS19350,Mohammed Foudah - 600C Bickerstaffe Road,"600 Bickerstaffe Road, Maungaturoto, 0587",-36.14795,174.355347,,Codie Hay,Active
RS19349,Frost - 222A Morningside Rd,"222A Morningside Road, Morningside, Whangārei, 0110",-35.73885,174.3183,,Matthew Hargood,Bid unsuccessful
RS19348,Brown - 10 Umurangi Way,"10 Umurangi Way, Tutukaka, 0173",0.0,0.0,,Sarah Scott,Active
RS19347,Newport - Russell Whakapara Rd,"5866 Russell Whakapara Road, Russell, 0272",-35.287186,174.152533,,Matthew Hargood,Not proceeding
RS19346,"Philip and Julia Leaf - Gillon Road, Matakohe","Gillon Road, Matakohe, 0594",-36.097607,174.16307,,Codie Hay,Active
RS19345,Heatherlea Farms Limited - 39 Heatherlea Drive,"39 Heatherlea Drive, Ruakākā, 0171",-35.89237,174.4309,,Codie Hay,Active
RS19344,Advance Build - 523 Maunu Road,"523 Maunu Road, Maunu, Whangārei, 0179",-35.744407,174.273651,,Codie Hay,Active
RS19343,Brunker - 6 Te Kokoru Pl,"6 Te Kokoru Place, Ngunguru, Whangārei, 0173",-35.625957,174.5171,,Harry Lee,Active
RS19342,McNabb - Hihi Rise,"Hihi Rise, Horahora, Whangārei, 0110",0.0,0.0,,Sarah Scott,Active
RS19341,Leslie Birch - 5C Whangarei Heads Rd,"5C Whangarei Heads Road, Onerahi, Whangārei, 0110",-35.75823,174.370483,,Matthew Hargood,Active
RS19340,Waimamaku Aged Care & Retirement Homes - 52 Hooks & Halls Road,"52 Hooks & Halls Road, Waimamaku, 0473",0.0,0.0,,Codie Hay,Active
RS19339,Whangarei District Council - Pataua North Estuary Erosion,"Estuary Erosion, Pataua North",0.0,0.0,,Matthew Jacobson,Active
RS19338,Whangarei District Council - Taiwa & Ohawini Rd Ramp,"Road Ramp, Ohawini, Whangaruru",0.0,0.0,,Matthew Jacobson,Active
RS19337,Duncan Anderson - 56 Te Rongo Road #18127,"56 Te Rongo Road, Parua Bay, 0174",-35.765926,174.452179,,Codie Hay,Active
RS19336,North Drill - 39 Church Road,"39 Church Road, Ngararatunua, 0176",-35.675617,174.258163,,David Platt,Active
RS19335,Greg Bill - 292 Vinegar Hill Road,"292 Vinegar Hill Road, Kauri, 0185",0.0,0.0,,Nathan Walker,Active
RS19334,Pumpkin - 18 Coronet Pl,"18 Coronet Place, Avondale, Auckland, 1026",-36.8938,174.676636,,Matthew Hargood,Unsuccessful
RS19333,Advance Build - 90 Seacliffe Rd - Appleton,"90 Seacliffe Avenue, Narrow Neck, Auckland, 0622",-36.80935,174.798141,,Harry Lee,Active
RS19332,Signature Homes - Mokohinau Drive,"Mokohinau Drive, Mangawhai, 0975",0.0,0.0,,Nathan Walker,Not proceeding
RS19331,"Versatile - 162 Marsden Point Road, Ruakaka","162 Marsden Point Road, Ruakākā, 0116",-35.889343,174.451035,,Ryan Jenner,Active
RS19330,"Motatau School - 18 Henare Road, Motatau","18 Henare Road, Motatau, 0281",-35.49608,174.0351,,Rachel Wright,Bid unsuccessful
RS19329,Darby - 713 Rockell Road,"713 Rockell Road, Whananaki, 0181",0.0,0.0,,Sarah Scott,Active
RS19328,Catherine & Greg Smith - 230 Mountfield Rd,"230 Mountfield Road, Ruakākā, 0582",0.0,0.0,,Matthew Jacobson,Active
RS19327,Versatile - 813 SH14,"813 State Highway 14, Maunu, Whangārei, 0179",-35.74291,174.23671,,David Platt,Complete
RS19326,Todd and Fiona Morley - 143A Tomarata Road,"143A Tomarata Road, Mangawhai, 0975",-36.13948,174.585709,,Codie Hay,Active
RS19325,"The Breath Space Ltd - Tinelle Langdon - 136 Ocean Beach Road, Whangarei Heads","136 Ocean Beach Road, Whangārei Heads, 0174",-35.84497,174.549515,,Matthew Jacobson,Active
RS19324,R&J - Hilhorst - 79 Mackesy Rd,"79 Mackesy Road, Parahaki, Whangārei, 0112",-35.731555,174.35408,,Harry Lee,Bid unsuccessful
RS19323,Classic Builders - 13 Kaymahr Lane,"13 Kaymahr Lane, Maunu, Whangārei, 0179",0.0,0.0,,Sarah Scott,Active
RS19322,Caltex - Cnr Normanby & Victoria St,"1 Normanby Street, Dargaville, 0310",-35.943687,173.866455,,Rachel Wright,Complete
RS19321,Signature Homes - Williams,"12 Pegasus Lane, Waipu, 0582",0.0,0.0,,Harry Lee,Active
RS19320,Northbase TC - Northbase Drive,"2 Northbase Drive, Mangawhai, 0505",0.0,0.0,,Logan Holt,Active
RS19319,Whangarei District Council - 11 Marina Road,"11 Marina Road, Tutukaka, 0173",-35.609584,174.524567,,Matthew Jacobson,Active
RS19318,Christian - 21 Marlin Drive,"21 Marlin Drive, Taupō Bay, 0494",-34.993434,173.709518,,Liam Crawford,Not proceeding
RS19317,Fowler Homes - 21 Taurangawaka Road,"21 Taurangawaka Road, Whangarei, 0118",-35.833606,174.458313,,David Platt,Active
RS19316,Fowler Homes - 13 Taurangawaka Road,"13 Taurangawaka Road, Whangarei, 0118",-35.833103,174.458939,,David Platt,Active
RS19315,Burton - 1116 Takatu Road,"1116 Takatu Road, Tāwharanui Peninsula, 0986",0.0,0.0,,Logan Holt,Not proceeding
RS19314,Advance Build - 11 Serenity Place,"11 Serenity Place, Parua Bay, 0174",-35.77591,174.481964,,David Platt,Complete
RS19313,Ogden - 172 Abbey Caves Road,"172 Abbey Caves Road, Abbey Caves, Whangārei, 0175",-35.71636,174.353409,,David Platt,Complete
RS19312,Megan Scott - 108 Range Road,"108 Range Road, Kawakawa, 0281",-35.402343,174.06131,,Codie Hay,Active
RS19311,Classic Builders - 6 Topfield Place,"6 Topfield Place, Port Whangārei, 0110",0.0,0.0,,Sarah Scott,Active
RS19310,KDC - Tinopai Wharf (Ref 18536),"166 Komiti Road, Tinopai, 0593",-36.25715,174.250916,,Matthew Jacobson,Active
RS19309,Lynda Swanson - 29A Marsden Point Road,"29A Marsden Point Road, Ruakākā, 0116",-35.902397,174.449326,,Codie Hay,Not proceeding
RS19308,GJ Gardner - 35B Ngunguru Road - Ward,"35B Ngunguru Road, Glenbervie, Northland, 0173",-35.680305,174.336472,,Liam Crawford,Active
RS19307,Jimmy He - 9x The Landings lots,"Kitemaunga Avenue, One Tree Point, Northland",-35.827304,174.457733,,Codie Hay,Not proceeding
RS19306,"Advance Build - 66 Access Road, Kerikeri","66 Access Road, Kerikeri, 0230",-35.236633,173.933685,,Matthew Jacobson,Active
RS19305,Classic Builders - 16 Cornerstone Place,"16 Cornerstone Place, Te Kamo, Whangārei, 0185",0.0,0.0,,Matthew Jacobson,Active
RS19304,Pergola - 21 Holiday Crescent,"21 Holiday Crescent, Mangawhai Heads, 0505",0.0,0.0,,Logan Holt,Proposal
RS19303,Smith - 113 Wintle St,"113 Wintle Street, Mangawhai Heads, 0505",0.0,0.0,,Logan Holt,Proposal
RS19302,NPM Construction - 54 The Centre,"54 The Centre, Waipu, 0510",-35.9839,174.444458,,Matthew Hargood,Complete
RS19301,Wright Design - 557 Wayby Valley Road,"557 Wayby Valley Road, Wellsford, 0974",0.0,0.0,,Logan Holt,Active
RS19300,Blomfield Special School -  31 Maunu Rd,"31 Maunu Road, Woodhill, Whangārei, 0110",-35.730083,174.314316,,Rachel Wright,Not proceeding
RS19299,Classic Builders - 3 Evergreen Place,"3 Evergreen Place, Port Whangārei, 0110",0.0,0.0,,Sarah Scott,Complete
RS19298,Construction Management Group Ltd - Papatoetoe Intermediate 175 Motatau Road,"127 Motatau Road, Papatoetoe, Auckland, 2025",0.0,0.0,,Sarah Scott,Active
RS19297,Brandellero - 2 Tapper Crescent,"2 Tapper Crescent, Tikipunga, Whangārei, 0112",0.0,0.0,,Ariel Tudor,Active
RS19296,Peter & Maree Houba - 1077 Matapouri Road,"1077 Matapouri Road, Matapouri, Whangarei, 0173",-35.564117,174.495483,,Harry Lee,Active
RS19295,Stoneleigh Orchards Ltd - 564B Ngunguru Road,"564B Ngunguru Road, Glenbervie, Whangarei, 0173",-35.662822,174.386429,,Codie Hay,Complete
RS19294,Roughan -79 Clapham Rd,"79 Clapham Road, Whareora, 0175",-35.68833,174.341415,,Liam Crawford,Not proceeding
RS19293,Signature Homes - Minhas 59 Raewyn St,"59 Raewyn Street, Morningside, Whangārei, 0110",0.0,0.0,,Nathan Walker,Not proceeding
RS19292,Hardie Boys - 69 Cemetery Rd,"69 Cemetery Road, Te Arai, 0975",0.0,0.0,,Logan Holt,Consent pending
RS19291,45 Fairway Drive - Vero Insurance NZ,"45 Fairway Drive, Kerikeri, 0230",0.0,0.0,,Liam Crawford,Active
RS19290,"Te Putahi Developments Ltd - 435 Kamo Road, Whangarei","435-437 Kamo Road, Kamo, Whangarei",-35.688564,174.303391,,Matthew Jacobson,Active
RS19289,Kamo High - 1 WILKINSON AVE,"1 Wilkinson Avenue, Te Kamo, Whangārei, 0112",-35.684623,174.302933,,Rachel Wright,Complete
RS19288,"Classic Builders - 6 Mystic Close, Kotata","6 Mystic Close, Whangarei, 0110",0.0,0.0,,Sarah Scott,Active
RS19287,Don Martin - 775 Wiroa Road (RS13232),"775 Wiroa Road, Ōkaihau, 0475",-35.272453,173.859192,,Matthew Hargood,Active
RS19286,XL Structural - FieldCo - 24 Awakino Point East Road,"24 Awakino Point East Road, Dargaville",-35.92405,173.894791,,Matthew Jacobson,Active
RS19285,Standard Details,"2 Seaview Road, Whangarei, Whangarei, 0110",-35.721843,174.321671,,Matthew Jacobson,Active
RS19284,GJ Gardner - 29 Cascade Crescent - Whelan,"29 Cascade Crescent, Tikipunga, Whangārei, 0112",-35.67738,174.322739,,Liam Crawford,Active
RS19283,"Hanson - 23 Matauwhi Road, Russell","23 Matauwhi Road, Russell, 0202",-35.265815,174.1238,,David Platt,Complete
RS19282,Repiles and Relocatables - 15A Sumner Pl,"15A Sumner Place, Te Kamo, Whangārei, 0112",-35.676693,174.312958,,Matthew Hargood,Complete
RS19281,Classic Builders - Judd Road Ref #18514,"Judd Road, Maungaturoto",0.0,0.0,,Matthew Jacobson,Complete
RS19280,Reddy - 58 Cullen Street,"58 Cullen Street, Mangawhai Heads, 0505",0.0,0.0,,Logan Holt,Active
RS19279,GJ Gardner - 8 Rock Ridge Drive,"8 Rock Ridge Drive, Te Kamo, Whangārei, 0112",-35.68823,174.288513,,Liam Crawford,Active
RS19278,"Versatile - Johnston - 689 Cove Road, Waipu","689 Cove Road, Waipu, 0582",-36.02331,174.498474,,David Platt,Active
RS19277,McBreen Jenkins - 10 Dyer St,"10 Dyer Street, Raumanga, Whangārei, 0110",-35.75531,174.31308,,Rachel Wright,Complete
RS19276,4 Square Russell -  9-11 York Street (RS15486),"9 York Street, Russell, 0202",-35.262817,174.122726,,Rachel Wright,Active
RS19275,Kingston House - 123 Hone Heke Rd,"123 Hone Heke Road, Kerikeri, 0230",-35.22183,173.955643,,Rachel Wright,Not proceeding
RS19274,Aaron Patterson - 58 Rarangi Heights (RS16409),"58 Rarangi Heights, Parua Bay, 0192",-35.777572,174.522736,,Rachel Wright,Active
RS19273,Lindsay Gray - 124 Marsden Road Paihia,"124 Marsden Road, Paihia, 0200",0.0,0.0,,Liam Crawford,Active
RS19272,Felicity Christian - 18 Ewing Road,"18 Ewing Road, Riverside, Whangārei, 0112",-35.721172,174.3268,,Codie Hay,Active
RS19271,Matapouri Marae - Mackie Place,"9 Mackie Place, Matapouri, 0173",-35.567546,174.505341,,David Platt,Bid unsuccessful
RS19270,Martin Minehan & Jeff Bubridge - 23 Te Wairoa Lane,"23 Te Wairoa Lane, Tinopai, 0593",-36.214263,174.15744,,Codie Hay,Complete
RS19269,Delamare - 378 Whareora Rd,"378 Whareora Road, Whareora, 0175",-35.703807,174.360092,,Matthew Hargood,Not proceeding
RS19268,GJ Gardner - Lovell Land Ltd 664 Otakairangi Road,"664 Otakairangi Road, Ruatangata West, 0185",-35.610336,174.166061,,Liam Crawford,Active
RS19267,Advance Build - 243 Rawhiti Road,"243 Rawhiti Road, Rawhiti, 0184",-35.23589,174.260757,,Matthew Jacobson,Active
RS19266,Northern Projects Ltd - 27 Te Mai (RS18004),"27 Te Mai Road, Woodhill, Whangārei, 0110",0.0,0.0,,Sarah Scott,Active
RS19265,Signature Homes - Shane Beagle 9 Apotu Park Lane,"9 Apotu Park Lane, Kauri, 0185",0.0,0.0,,Nathan Walker,Active
RS19264,Dobbs Reed - 21 Bush Point Road,"21 Bush Point Road, Kerikeri, 0294",-35.192287,174.022247,,Harry Lee,Active
RS19263,Steve Keane - 10 Grahamtown Road,"10 Grahamtown Road, Onerahi, Whangārei, 0174",-35.755432,174.378326,,Codie Hay,Not proceeding
RS19262,Griffiths - 84 Sandford Rd,"84 Sandford Road, Ruakākā, 0171",-35.903698,174.435516,,Matthew Hargood,Unsuccessful
RS19261,Thorne - 2 Whangaumu Road,"2 Whangaumu Street, Tutukaka, 0173",-35.63412,174.524658,,David Platt,Complete
RS19260,Nedungat - Lot 14 Waipu Caves Estate,"Waipu Caves Estate Drive, Waipu",-35.932647,174.353027,,David Platt,Complete
RS19259,Hall - 2 Ishtar Place,"2 Ishtar Place, One Tree Point, 0118",-35.82481,174.450684,,David Platt,Complete
RS19258,Spring Park - 55A Great North Rd,"55A Great North Road, Te Kamo, Whangārei, 0112",-35.667873,174.297073,,Matthew Hargood,Active
RS19257,Griffiths - 274 Takahue Rd,"274 Takahue Road, Kaitaia, 0482",-35.161438,173.348969,,Matthew Hargood,Unsuccessful
RS19256,"Greenstar Properties - Reservoir Rise, Whangarei","Reservoir Rise, Port Whangārei, Whangārei, 0110",-35.74579,174.3247,,Matthew Jacobson,Active
RS19255,"Tau Henare Marae - 3254 PIPIWAI RD, PIPIWAI","3254 Pipiwai Road, Pipiwai, 0176",-35.61953,174.018326,,Harry Lee,Active
RS19254,"Norton - 3 Tern Lane, Whananaki","3 Tern Lane, Whananaki, 0181",-35.507152,174.462021,,Rachel Wright,Complete
RS19253,"Topuni Timber - Schiska Road, SH1, Kaiwaka","Schiska Road, Kaiwaka, Topuni, 0975",-36.201217,174.447464,,Rachel Wright,Unsuccessful
RS19252,"4 Square - 15 Freyberg Road, Ruawai","15 Freyberg Road, Ruawai, 0530",-36.135673,174.024582,,Rachel Wright,Complete
RS19251,Stevens - 100 Stunnell Road,"100 Stunnell Road, Otaika, 0170",-35.785026,174.2785,,Liam Crawford,Active
RS19250,Signature Homes - Ashton (ref 18386) 128 Mangawhai Heads Rd,"16 Waiwarawara Drive, Ruakākā, 0171",0.0,0.0,,Nathan Walker,Complete
RS19249,Manaaki Building - 197 Lower dent Street,"197 Lower Dent Street, Whangārei, 0110",0.0,0.0,,Sarah Scott,Construction
RS18893,Gribble - 50 George Street,"50 George Street, Hikurangi, 0114",-35.604545,174.286682,,David Platt,Active
RS19247,"Greenstar Properties - 65 Salesyard Road, Kauri","65 Saleyards Road, Kauri, 0185",0.0,0.0,,Sarah Scott,Active
RS19246,Sunshine Homes - 671 Kokopu Road,"671 Kokopu Road, Kokopu, 0179",0.0,0.0,,Sarah Scott,Active
RS19245,Signature Homes - O'Reilly 74 Rock Ridge Drive,"74 Rock Ridge Drive, Te Kamo, Whangārei, 0112",0.0,0.0,,Nathan Walker,Complete
RS19244,Cole Jobe - 1880 Ngunguru Rd,"1880 Ngunguru Road, Ngunguru, 0173",0.0,0.0,,Nathan Walker,Not proceeding
RS19243,"Glen & Erin Hawke - 11 Tullamore Rd, Maunu","11 Tullamore Lane, Maunu, Whangārei, 0110",-35.749973,174.274261,,Harry Lee,Active
RS19242,Geoff Hanham - 1013 Matapouri Rd,"1013 Matapouri Road, Matapouri, 0173",-35.564724,174.49675,,Harry Lee,Not proceeding
RS19241,Bregmen & Thompson - 12A Ranui Road,"12 Ranui Road, Whangārei Heads, 0174",-35.840183,174.570328,,David Platt,Complete
RS19240,Otamatea High School - Mandeno Design,"120 Bickerstaffe Road, Maungaturoto, 0587",-36.11669,174.364746,,Matthew Jacobson,Active
RS19239,GJ Gardner - Zuill,"58 Karanui Road, Te Kamo, Whangārei, 0185, New Zealand",-35.69624,174.259888,,Codie Hay,Not proceeding
RS19238,N & D Enterprises Ltd - 69 Marsden Point Road,"69 Marsden Point Road, Ruakākā, 0116",-35.89869,174.449417,,Codie Hay,Active
RS19237,NZ Portables - 159 Whananaki North Rd,"159 Whananaki North Road, Whakapara, 0181",-35.553127,174.294861,,Matthew Hargood,Unsuccessful
RS19236,Chandra Subramaniam - 282 Marsden Pt Rd,"282 Marsden Point Road, Ruakākā, 0116",0.0,0.0,,David Platt,Unsuccessful
RS19235,Webb - 433 Mahuta Road,"433 Mahuta Road, Mahuta, Mahuta, 0371, New Zealand",-36.012134,173.8182,,Ryan Jenner,Job incomplete
RS19234,Ariyani - 103 Commerce St,"103 Commerce Street, Kaitaia, 0410",-35.11366,173.2639,,Matthew Hargood,Not proceeding
RS19233,Webb - 443 Mahuta Rd,"443 Mahuta Road, Mahuta, 0371",-36.011447,173.817062,,Matthew Hargood,Complete
RS19232,Walker - 24 Tullamore Ln,"24 Tullamore Lane, Maunu, Whangārei, 0110, New Zealand",-35.750865,174.275391,,Daniel Squires,Design
RS19231,The Gardner Family Trust - 50 Kiteone Rd,"50 Kiteone Road, Parua Bay, 0174",-35.773124,174.4851,,Matthew Jacobson,Complete
RS19230,DHS - 2C Jessie St,"2C Jessie Street, Parahaki, Whangārei, 0112",-35.72753,174.3384,,Matthew Hargood,Complete
RS19229,Waitoto Dev - Workshop - 15 Aucks Rd,"15 Aucks Road, Russell, 0272",-35.288215,174.1503,,Matthew Hargood,Complete
RS19228,Wearmouth - 1912 Paparoa Valley Rd,"1912 Paparoa Valley Road, Paparoa, 0571",-36.099716,174.243256,,Matthew Hargood,Not proceeding
RS19227,"Rainford - 6 Kaipatiki Rise, Haruru","6 Kaipatiki Rise, Haruru, 0204",-35.2823,174.061768,,David Platt,Complete
RS19226,Advance Build - Swabb 534 Pataua Sth Rd,"534 Pataua South Road, Pataua South, 0192",-35.74013,174.527176,,Matthew Jacobson,Active
RS19225,GJ Gardner - Greensmith 873 Whareora Rd,"873 Whareora Road, Whareora, 0175",-35.68627,174.401337,,Liam Crawford,Active
RS19224,Matariki Traders Ltd - 125 Wairau Drive,"125 Wairau Drive, Tikipunga, Whangārei, 0112",-35.676704,174.322952,,David Platt,Complete
RS19223,Rolf Fuchs 225 Simons Rd,"225 Simons Road, Poroti, 0179",-35.76432,174.152008,,Sarah Scott,Active
RS19222,"Blundell - 226 Cames Road, Mangawhai","226 Cames Road, Mangawhai, 0975",-36.170806,174.55603,,Sarah Scott,Active
RS18396,Cottle Ventures Ltd - 207 Morningside Road,"207 Morningside Road, Morningside, Whangārei, 0110",-35.739742,174.320251,,Matthew Jacobson,Active
RS19220,Lokaj - 14 Blue Gum Pl,"14 Blue Gum Place, Woodhill, Whangārei, 0110",-35.729854,174.307983,,Matthew Hargood,Complete
RS19219,Speight - 22 Carr St,"22 Carr Street, Te Kamo, Whangārei, 0112",-35.69024,174.301147,,Matthew Hargood,Active
RS19218,GJ Gardner - Caulfield #18922,"6 Bonnie Doon Place, Whangārei, Whangārei, 0185, New Zealand",-35.661407,174.322525,,Codie Hay,Job cancelled
RS19217,McKernan - 17 St Anne Rd,"17 Saint Anne Road, Waipu, 0582",-36.029377,174.503525,,Liam Crawford,Complete
RS19216,Advance Build - Ramaroa 3116 Russell Rd,"3116 Russell Road, Punaruku, 0184",-35.36402,174.318039,,Matthew Jacobson,Active
RS19215,Dave & Renee Pilkington - 2 Taha Rd,"2 Taha Road, Kauri, 0185",-35.627265,174.278763,,Matthew Jacobson,Complete
RS19214,Cheryl Smith 13 Paratai Cres,"13 Paratai Crescent, Woodhill, Whangārei, 0110",-35.729156,174.3053,,Matthew Jacobson,Active
RS19213,Graham - 309 Nook Road,"309 Nook Road, Parua Bay, 0174",-35.793113,174.469543,,David Platt,Complete
RS19212,St Francis Xavier Parish - 63 Park Ave,"63 Park Avenue, Kensington, Whangārei, 0112",0.0,0.0,,Liam Crawford,Active
RS19211,Land of the Lotus - 304 Mangakahia Rd,"304 Mangakahia Road, Maungatapere, 0179",-35.753704,174.175568,,Sarah Scott,Active
RS19210,Camuso - 747 Whangarei Heads Road,"747 Whangarei Heads Road, Parua Bay, 0174",-35.777965,174.426468,,Ryan Jenner,Active
RS19209,NRC - 44/48 Hannah Street,"44 Hannah Street, Whangārei, 0110",-35.727825,174.324814,,Matthew Hargood,Complete
RS19208,B & M Young - 49 Ridgeway Dr,"49 Ridgeway Drive, Te Kamo, Whangārei, 0112",0.0,0.0,,Nathan Walker,Active
RS19207,Murnane - 21C  View Rd,"21C View Road, Hikurangi, 0114",-35.59534,174.282028,,Matthew Hargood,Active
RS19206,Fowler Homes - 11 Taranui Place,"11 Taranui Place, Mangawhai Heads, 0505",-36.086307,174.5832,,David Platt,Not proceeding
RS19205,PCM - Campbell,"6 Fantail Way, Mangawhai, Mangawhai, 0505, New Zealand",-36.124317,174.570374,,Codie Hay,Job cancelled
RS19204,Sutherland - 15 Karoro Road,"15 Karoro Road, One Tree Point, 0118",-35.821323,174.451447,,Ryan Jenner,Active
RS19203,Morgan Project - CL Balemi - 3524 SH1 Waipu,"3524 State Highway 1, Waipu, 0582",-35.966384,174.443237,,Matthew Hargood,Complete
RS19202,PCM - N Campbell - 6 Fantail Way,"6 Fantail Way, Mangawhai, 0505",-36.124317,174.570374,,Matthew Hargood,Active
RS19201,Jason - 4 & 6 Cornfoot Avenue,"4 Cornfoot Avenue, Whangārei Heads, 0174",-35.814933,174.504547,,David Platt,Unsuccessful
RS19200,"Homeworld - 71 Marlow Road, Riponui","71 Marlow Road, Riponui, 0185",-35.56597,174.124054,,David Platt,Complete
RS19199,Kensington Hospital - 12 Kensington Ave,"12 Kensington Avenue, Kensington, Whangārei, 0112",-35.708602,174.320175,,Rachel Wright,Active
RS19198,Advance Build - 7 Blue Gum Lane Kerikeri,"7 Blue Gum Lane, Kerikeri, 0293",-35.241874,173.923264,,Matthew Jacobson,Active
RS19197,"RDA - Barge Park, Maunu","Barge Showgrounds Events Centre 474 Maunu Road, Maunu, Whangarei, 0179",-35.74167,174.2757,,Harry Lee,Not proceeding
RS19196,Matatina - Papakainga Dev Nathans Rd,"Nathans Road, Waipoua, 0376",0.0,0.0,,Matthew Jacobson,Complete
RS19195,Signature - Waitere - 15 Taitua Tce,"15 Taitua Terrace, Port Whangārei, Whangārei, 0110",-35.744003,174.318771,,Harry Lee,Complete
RS19194,WBHS - Block K Gym,"245 Western Hills Drive, Avenues, Whangārei, 0110",-35.717357,174.315887,,Rachel Wright,Complete
RS19193,Hargood - 171 Abbey Caves Road,"171 Abbey Caves Road, Abbey Caves, Whangārei, 0175",-35.71551,174.353683,,Codie Hay,Complete
RS19192,Versatile - Bennett - 3321 S HW 1,"3321 State Highway 1, Waipu, 0582",-35.951187,174.454376,,Liam Crawford,Active
RS19191,Baxter - 287 Massey Road,"287 Massey Road, Waipu, 0582",-36.049022,174.469421,,Matthew Hargood,Complete
RS19190,Te Putahi Projects - 14 Commerce St,"14 Commerce Street, Kaitaia, 0410",-35.11607,173.265167,,Matthew Jacobson,Active
RS19189,Te Kupenga Farm - Hewitt Rd,"Hewitt Road, Te Tii, 0294",-35.132614,173.980611,,Daniel Squires,Complete
RS19188,Elliot - 120 Golf Harbour Dr,"120 Golf Harbour Drive, Maunu, Whangārei, 0179",-35.72999,174.247025,,Matthew Hargood,Complete
RS19187,Pihi Kaha Project - 151 Maunu Rd Whangārei Hospital’s,"151 Maunu Road, Horahora, Whangārei, 0110",-35.73433,174.302368,,Rachel Wright,Proposal
RS19186,Craig - 110 Pipiwai Rd,"110 Pipiwai Road, Whangarei, 0176",-35.672527,174.284348,,Matthew Jacobson,Complete
RS19185,Guyco Construction - 43 Ohawini Rd,"43 Ohawini Road, Ōakura, 0184",-35.3803,174.344574,,Matthew Jacobson,Active
RS19184,Scott - 187A Whau Valley Rd,"187A Whau Valley Road, Whau Valley, Whangārei, 0112",-35.701622,174.297729,,Matthew Hargood,Active
RS18332,"D & J Statham - 73 Heatherlea Drive, Ruakaka","73 Heatherlea Drive, Ruakākā, 0171",-35.89513,174.4293,,Matthew Jacobson,Complete
RS19182,Shanks - 239 Marsden Point Road,"239 Marsden Point Road, Ruakākā, 0116",-35.881443,174.452087,,David Platt,Active
RS19181,Homeworld - Wilson Tabuteau - 53 Motutara Dr,"53 Motutara Drive, Karikari Peninsula, 0483",-34.878025,173.292191,,Matthew Hargood,Unsuccessful
RS19180,Tapora Primary School -1 Okahukura Rd,"1 Okahukura Road, Tapora, 0977, New Zealand",-36.351295,174.302429,,Matthew Jacobson,Complete
RS19179,GJ Gardner - Macefield 2 Kentia Court,"2 Kentia Court, Ruakākā, 0118",-35.839027,174.459946,,Liam Crawford,Active
RS18512,McQuinn - 167 Fairway Drive,"167 Fairway Drive, Te Kamo, Whangārei, 0112",-35.688854,174.300339,,David Platt,Complete
RS19177,Milking Shed - 450a Settlement Road,"450A Settlement Road, Kaiwaka, 0573",0.0,0.0,,Logan Holt,Active
RS19176,Versatile - 252 Molesworth Drive,"252 Molesworth Drive, Mangawhai Heads, 0505",-36.094692,174.58638,,Ryan Jenner,Active
RS19175,Otaika Valley School - Valley Rd Classroom Alteration,"Valley View Road, Otaika, 0170",-35.789093,174.291977,,Harry Lee,Complete
RS19174,Advance Build - 7886 SH 12,"7886 State Highway 12, Ōmāpere, 0473",-35.55644,173.407913,,Matthew Jacobson,Active
RS19173,Belsham - 7 Lynfield Place,"7 Lynfield Place, Mount Roskill, Auckland, 1041",0.0,0.0,,Logan Holt,Unsuccessful
RS19172,Signature Homes - 3 James Clendon Pl,"3 James Clendon Place, Okiato, 0272",-35.30321,174.120239,,Harry Lee,Active
RS19171,Signature Homes - 22a Blue Moon rise,"22A Blue Moon Rise, Waipu, Waipu, 0582, New Zealand",0.0,0.0,,Nathan Walker,Unsuccessful
RS19170,Signature Homes - Robertson - 11 Serenity Place Parua Bay,"11 Serenity Place, Parua Bay, Parua Bay, 0174, New Zealand",0.0,0.0,,Nathan Walker,Active
RS19169,WDC - Slips Investigation - CON23064,New Zealand,0.0,0.0,,Matthew Jacobson,Active
RS19168,"Clark - 56 Wairahi Road, Langs Beach","56 Wairahi Road, Langs Beach, 0582",-36.04739,174.534973,,David Platt,Active
RS19167,Mark Zeilstra - R&B 290 Orira Rd,"290 Orira Road, Umawera, Northland, 0476",-35.316814,173.571823,,Matthew Jacobson,Complete
RS19166,Arco (previously Builtmart) - Riverview School,"23 Riverview Road, Kerikeri, 0230",-35.2077,173.969238,,Matthew Jacobson,Active
RS19165,Versatile - Strydom - 43 Matahehe Ln,"43 Matahehe Lane, Tinopai, 0593",-36.161655,174.189819,,Harry Lee,Active
RS19164,Iaan McKenzie - 147 Tara Rd,"147 Tara Road, Mangawhai, 0573",-36.122623,174.553009,,Harry Lee,Active
RS19163,Rosewarne - 45 Flagstaff Tce,"45 Flagstaff Terrace, Waipu, 0582, New Zealand",-35.98917,174.462936,,Matthew Hargood,Bid withdrawn
RS19162,Northpower Seismic - Mt Pleasant Rd (Ref 12932),"28 Mount Pleasant Road, Raumanga, Whangārei, 0110, New Zealand",-35.746543,174.309357,,Daniel Squires,Active
RS19161,BKL Matheson - Glenmohr Rd,"Glenmohr Road, Lot 2, Waipu, 0582",-36.032735,174.460559,,Matthew Jacobson,Active
RS19160,Kowhai Properties - Waiotu Block Rd,"Waiotu Block Road, Hūkerenui, 0182",-35.517547,174.227463,,Matthew Jacobson,Active
RS19159,MOE - Selwyn Park School,"38 Onslow Street, Dargaville, 0310",-35.932796,173.876373,,Matthew Jacobson,Active
RS19158,Antonio - 1398 Redhill Rd,"1398 Redhill Road, Te Kōpuru, 0371",-36.077312,173.876541,,David Platt,Active
RS19157,Versatile - 11 Braemar lane,"11 Braemar Lane, Waipu, 0510",-35.986682,174.449966,,David Platt,Active
RS19156,Perry - 4B Rua Road,"4B Rua Road, Mangawhai, 0573",-36.11016,174.5408,,David Platt,Complete
RS19155,Blush Skin Clinic - 76 Western Hills Dr,"76 Western Hills Drive, Kensington, Whangārei, 0112",-35.704284,174.311981,,Harry Lee,Not proceeding
RS19154,Smith & Maxwell -193 Newton Rd,"193 Newton Road, Kaikohe, 0473",-35.533844,173.405411,,Codie Hay,Complete
RS19153,Patel - Te Maika Rd,"Te Maika Road, Ngunguru, 0173",0.0,0.0,,Codie Hay,Complete
RS19152,Signature Homes - Harrison 54 Te Taniwha Rd,"54 Te Taniwha Road, Whangārei, 0118",-35.834266,174.458054,,Nathan Walker,Complete
RS19151,Reyburn & Bryant - Sturgin - 123 One Tree Point Road,"123 One Tree Point Road, One Tree Point, 0118",-35.82967,174.462692,,Matthew Jacobson,Active
RS19150,Fairweather - 1948 Whangarei Heads Road,"1948 Whangarei Heads Road, Whangārei Heads, 0174",-35.806655,174.501465,,David Platt,Complete
RS19149,Otaika Valley School - LSPM,"11 Valley View Road, Whangārei, 0170",-35.78668,174.30011,,Liam Crawford,Active
RS19148,Fett and Lee  - 37A Reinga Rd,"37A Reinga Road, Kerikeri, 0230, New Zealand",-35.214508,173.980774,,Matthew Hargood,Not proceeding
RS19147,Colthurst Seismic - 25 Bank St,"25 Bank Street, Whangārei, 0110",-35.725437,174.319214,,Rachel Wright,Job cancelled
RS19146,WDC Maunu Stormwater,"499 State Highway 14, Maunu, Whangārei, 0179",-35.744884,174.268448,,Matthew Jacobson,Active
RS19145,Ngunguru Football Club - Kopipi Crescent,"33b Kopipi Crescent, Ngunguru, 0173",-35.628402,174.5047,,David Platt,Not proceeding
RS19144,ARGENTO - 98A Western Hills Dr,"98A Western Hills Drive, Kensington, Whangārei, 0112",-35.70564,174.310532,,Matthew Hargood,Complete
RS19143,Turley - 55 Mill Rd,"55 Mill Road, Kensington, Whangārei, 0112, New Zealand",-35.708316,174.325073,,Matthew Hargood,Bid unsuccessful
RS19142,Cumiskey - 453B Barrier View Rd,"453B Barrier View Road, Mangawhai, 0573",-36.086952,174.563354,,Logan Holt,Active
RS19141,Robb Alteration 117 Wintle St,"117 Wintle Street, Mangawhai Heads, 0505",0.0,0.0,,Logan Holt,Active
RS19140,Maxwell - The Lakes Drive Waipapa,"The Lakes Drive, Kerikeri, 0230",0.0,0.0,,Sarah Scott,Complete
RS19139,Mandeno - 181 Simons Road Poroti,"181 Simons Road, Poroti, 0179",0.0,0.0,,Sarah Scott,Active
RS19138,Advance Building - 7 Marram Pl,"7 Marram Place, Mangawhai, 0505",-36.08967,174.580933,,Matthew Jacobson,Active
RS19137,"Signature Homes - Bassett Road, Dargaville","24 Bassett Street, Dargaville, 0310",-35.953765,173.86203,,David Platt,Unsuccessful
RS19136,Schwartfeger - 40 Whareora Rd,"40 Whareora Road, Tikipunga, Whangārei, 0112",-35.70164,174.331924,,Daniel Squires,Complete
RS19135,Maungakaramea School - Tangihua Rd,"Tangihua Road, Maungakaramea, 0178",-35.84413,174.202554,,Harry Lee,Active
RS19134,Robinson - 56 Pebblebrooke Rd,"56 Pebblebrooke Road, Mangawhai, 0573",-36.09495,174.499359,,Matthew Jacobson,Active
RS19133,Bill F T - Waiotemarama Gorge Rd,"Waiotemarama Gorge Road, Waimamaku, Northland, 0473",-35.538677,173.4352,,Matthew Jacobson,Complete
RS19132,Savey Investment - 120 Bint Rd,"120 Bint Road, Maungakaramea, 0178",-35.836925,174.179138,,Liam Wei,Complete
RS19131,Tapora Primary School  - 1 Okahukura Rd,"1 Okahukura Road, Tapora, 0977",-36.351295,174.302429,,Liam Crawford,Active
RS19130,Goodhew - 13 Rust Ave,"13 Rust Avenue, Whangārei, 0110",-35.72319,174.317215,,Matthew Hargood,Complete
RS19129,Mattison - 11 Ringer Ave,"11 Ringer Avenue, Matapouri, 0173",0.0,0.0,,Logan Holt,Proposal
RS19128,Dickens - 32 McClintock Street,"32 McClintock Street, Whau Valley, Whangārei, 0112",-35.69775,174.315887,,Sarah Scott,Active
RS19127,Beazley - 1880 Whangarei Heads Road,"1880 Whangarei Heads Road, Whangārei Heads, 0174",-35.8013,174.499588,,David Platt,Complete
RS19126,Albon - 968 Cove Rd,"968 Cove Road, Waipu, 0582",-36.034503,174.511841,,Matthew Jacobson,Active
RS19125,Classic - 32 Rock Ridge Dr (18669),"32 Rock Ridge Drive, Te Kamo, Whangārei, 0112",-35.68704,174.286652,,Sarah Scott,Active
RS19124,Smith - 616 Mahuta Road,"616 Mahuta Road, Mahuta, 0371",-36.003154,173.806061,,David Platt,Not proceeding
RS19123,Morningside Primary School BOT,"53A Morningside Road, Morningside, Whangārei, 0110",-35.734912,174.322525,,Sarah Scott,Active
RS19122,Steele - 572A Pahi Road,"572A Pahi Road, Pahi, 0571",-36.152477,174.220978,,Liam Crawford,Complete
RS19121,Fowler Homes - 193 Maungakaramea Road,"193 Maungakaramea Road, Maungakaramea, 0178",-35.806182,174.275986,,David Platt,Active
RS19120,Whangarei Girls High School - 1 Lupton Avenue,"1 Lupton Avenue, Regent, Whangārei, 0112",-35.714614,174.319962,,Rachel Wright,Proposal
RS19119,McCahon - 3 Glinks Road,"3 Glinks Road, Te Kōpuru, 0371",-36.080944,173.857391,,David Platt,Active
RS19118,Winkworth - 56 Ariels Lane,"56 Ariels Lane, Paparoa, 0583",0.0,0.0,,Logan Holt,Not proceeding
RS19117,Farrand - 80 Riverview Rd,"80 Riverview Road, Kerikeri, 0230",-35.20791,173.974487,,Liam Crawford,Active
RS19116,Homeworld - Fuchs - 225 Simons Rd,"225 Simons Road, Poroti, 0179",-35.76232,174.151367,,Matthew Hargood,Unsuccessful
RS19115,Signature - Niha - 275 Mt Tiger Rd,"275 Mount Tiger Road, Whareora, 0192",-35.7135,174.3934,,Harry Lee,Complete
RS19114,"Snelgar - 298 Cove Road, Waipu","298 Cove Road, Waipu, 0582",-35.996727,174.4725,,David Platt,Active
RS19113,Stone & Keck - 24 Pukeone Lane,"24 Pukeone Lane, Mangawhai, 0975",-36.133853,174.62204,,Logan Holt,Construction
RS19112,GJ Gardner - Campi - 851 Cove Road,"851 Cove Road, Waipu, 0582",-36.02832,174.5036,,Codie Hay,Proposal
RS19111,Onyx Ltd - 162 Pukeatua Road Maungatapere (18262),"162 Pukeatua Road, Maungatapere, 0179",-35.776813,174.206863,,Sarah Scott,Not proceeding
RS19110,"Ketenikau Developments - 29 Ketenikau Road, Whangarei","29 Ketenikau Road, Te Kamo, Whangārei, 0112",-35.691577,174.291122,,Matthew Jacobson,Active
RS19109,"Millbrook Estate Property Dev - Millbrook Road, Whangarei","Millbrook Road, Waipu",-35.974533,174.372833,,Matthew Jacobson,Active
RS19108,Olson - 25G Tutukaka Block Rd,"25G Tutukaka Block Road, Tutukaka, 0173",-35.614418,174.526871,,Harry Lee,Active
RS19107,Brinkman - 11 Eileen Stephens Pl,"11 Eileen Stephens Place, Tikipunga, Whangārei, 0112",-35.69332,174.325363,,Matthew Hargood,Unsuccessful
RS19106,Edwards - 571 Houto Rd,"571 Houto Road, Titoki, 0172",-35.748256,173.997681,,Gareth Turner,Proposal
RS19105,Lovell Land Ltd - 664 Otakairangi Road,"664 Otakairangi Road, Ruatangata West, 0185",-35.610336,174.166061,,David Platt,Complete
RS19104,"Mokaraka - 45 O'Carroll Road, Maungakaramea","45 Ocarroll Road, Maungakaramea, 0178",-35.85183,174.18866,,David Platt,Complete
RS19103,Bellingham Farms -  Mangakahia Road. Titoki,"Mangakahia Road, Titoki, 0172",-35.72252,174.042023,,Matthew Jacobson,Active
RS19102,BOI College - BUILTsmart 1 Derrick Rd,"1-9 Derrick Road, Kawakawa, 0210",-35.379276,174.077927,,Matthew Jacobson,Complete
RS19101,MOE - Onerahi Primary School,"0 Church Street, Onerahi, Whangārei, 0110",-35.757698,174.367844,,Matthew Jacobson,Active
RS19100,WDC  - Okarika Scour Protection,"Matarau Road, Matarau, 0185",-35.628793,174.202853,,Matthew Jacobson,Complete
RS19099,Clark - 5 Harmony Way,"5 Harmony Way, Waipu, 0582",-35.991985,174.448425,,Harry Lee,Active
RS19098,Brown - 194A Tern Point,"194A Tern Point, Mangawhai, 0975",-36.118045,174.601669,,Logan Holt,Active
RS19097,Hards - 61 Rydean Way,"61 Rydean Way, Kauri, 0185, New Zealand",-35.62551,174.273026,,Matthew Hargood,Not proceeding
RS19096,Sportsville Dargaville - Logan St Pioneer Park,"Logan Street, Dargaville, 0310",-35.95123,173.862854,,Matthew Hargood,Bid unsuccessful
RS19095,Bill Family Trust - Waiotemarama Gorge Road - Three Lots,"Waiotemarama Gorge Road, Waimamaku, 0473",-35.538677,173.4352,,Matthew Jacobson,Complete
RS19094,Unasa - 40 Owai Ave,"40 Owai Avenue, Helena Bay, 0184",-35.436843,174.3627,,Harry Lee,Job cancelled
RS19093,Badham - 53 Beach Rd,"53 Beach Road, Headland Farm Park, Tamaterau, Whangarei, 0174",-35.790376,174.439156,,Matthew Hargood,Active
RS19092,The Libation Lads Ltd - 7 Vine St,"7 Vine Street, Whangārei, 0110",-35.72569,174.31958,,Matthew Hargood,Complete
RS19091,Latitude - Tattersall - 106 Ngahere Dr,"106 Ngahere Drive, Horahora, Whangārei, 0110",-35.736553,174.293564,,David Platt,Complete
RS19090,IRD - 70 Bank Street (ref Mortlock 17177),"70 Bank Street, Whangārei, 0110",-35.724,174.319885,,Rachel Wright,Active
RS19089,Simpkin - 113 Hokianga Rd,"113 Hokianga Road, Dargaville, 0310",-35.93481,173.861832,,Matthew Hargood,Design
RS19088,Wood - 8 Cornerstone Place,"8 Cornerstone Place, Te Kamo, Whangārei, 0185",-35.69189,174.2588,,David Platt,Complete
RS19087,"Clarke - 21 Bedlington St, Whau Valley","21 Bedlington Street, Whau Valley, Whangārei, 0112",-35.70004,174.310791,,Matthew Hargood,Complete
RS19086,Gillespie - 1927 Whangarei Heads Rd,"1927 Whangarei Heads Road, Whangārei Heads, 0174",-35.805255,174.501938,,David Platt,Active
RS19085,Duncan - 429 Glenmohr Rd,"429 Glenmohr Road, Waipu, 0582",-36.038753,174.4506,,Matthew Hargood,Construction
RS19084,Okokiwi Downs - 61 Cottle Hill Dr,"61 Cottle Hill Drive, Kerikeri, 0293",-35.263855,173.944977,,Matthew Hargood,Complete
RS19083,Homeworld - Douglas - 31 Whangaumu St,"31 Whangaumu Street, Tutukaka, 0173",-35.633606,174.527435,,Matthew Hargood,Unsuccessful
RS19079,Tangiteroria School - 3069 SH14,"3069 State Highway 14, Tangiteroria, 0381",-35.821407,174.048233,,Harry Lee,Consent pending
RS19078,Eyer - 12 Whitney Lane,"12 Whitney Lane, Karikari Peninsula, 0483",-34.870697,173.385864,,Codie Hay,Complete
RS19077,Edwards - Puketitoi Rd,"Puketitoi Road, Purua, Northland",-35.696303,174.104225,,Matthew Hargood,Active
RS19076,Bradley - 25 Rihi Paea Rise,"Rihi Paea Rise, Ngunguru, 0173",-35.625427,174.517181,,Matthew Jacobson,Active
RS19075,Wallace - 37 Huanui Road,"37 Huanui Road, Glenbervie, 0173",-35.655593,174.353256,,David Platt,Complete
RS19074,Croft - 477 Crane Road,"477 Crane Road, Kauri, 0185",-35.6456,174.277542,,Matthew Hargood,Active
RS19073,Moriarty - 5 Ocean Close,"5 Ocean Close, Te Kōpuru, 0371, New Zealand",-36.080692,173.858261,,David Platt,Complete
RS19072,Ledward - Lot 4 Oturu Place,"Oturu Place, Tutukaka, 0173, New Zealand",-35.614215,174.522171,,Codie Hay,Complete
RS17999,Hutchinson - 666 Pataua Sth rd,"666 Pataua South Road, Pataua South, 0192, New Zealand",-35.730632,174.526672,,Sarah Scott,Active
RS19070,Ballantine - 3 Sierra Avenue,"3 Sierra Avenue, Te Kamo, Whangārei, 0112, New Zealand",-35.69041,174.304321,,Sarah Scott,Complete
RS19069,Whitton Family Trust - 49 Sea Vista Lane,"49 Sea Vista Lane, Parua Bay, 0174, New Zealand",-35.767654,174.444077,,Matthew Jacobson,Complete
RS19068,Jones - 2021 Whangarei Heads Road,"2021 Whangarei Heads Road, Whangārei Heads, 0174, New Zealand",-35.81187,174.504959,,David Platt,Complete
RS19067,Porter - 34 Oneroa Road,"34 Oneroa Road, Russell, 0202, New Zealand",-35.25971,174.129944,,Matthew Jacobson,Active
RS19066,Maich - Forest View Road,"Forest View Road, Te Kamo, Whangārei, 0185, New Zealand",-35.69473,174.247009,,Matthew Hargood,Active
RS18971,Hale - 622 Lawrence Road,"622 Lawrence Road, Kaiwaka, Northland, 0573, New Zealand",-36.15,174.516399,,Logan Holt,Active
RS18931,Strand Homes - 57 Te Taniwha Rd,"57 Te Taniwha Road, Whangārei, Northland, 0118, New Zealand",-35.834141,174.457409,,David Platt,Complete
RS18929,S Butterworth - 14 Corks Rd,"14 Corks Road, Whangārei, Northland, 0112, New Zealand",-35.677792,174.313801,,David Platt,Active
RS18927,GJ Gardner Homes - L Patrick,"405 Maunu Road, Whangārei, Northland, 0110, New Zealand",-35.737756,174.285501,,Matthew Hargood,Complete
RS18919,D Thacker - 11 Raumanga heights,"11 Raumanga Heights Drive, Whangārei, Northland, 0110, New Zealand",-35.741098,174.302475,,David Platt,Complete
RS18912,AF Marketing - Gillon Rd,"Gillon Road,, Matakohe, 0594, New Zealand",-36.095911,174.161622,,Matthew Jacobson,Active
RS18902,Littin - 426 Crane Rd,"426 Crane Road, Kauri, Northland, 0185, New Zealand",-35.645351,174.271793,,Matthew Hargood,Complete
RS18901,Latitude Homes Northland - Rakete,"47 Waikare Road, Kawakawa, Northland, 0282, New Zealand",-35.363038,174.09473,,Matthew Hargood,Complete
RS18888,Classic Builders - Kumar 13 Evergreen Pl,"13 Evergreen Place, Whangārei, Northland, 0110, New Zealand",-35.744334,174.316303,,Sarah Scott,Active
RS18880,Sunshine Homes - Chambers 7 Manaaki Circle,"7 Manaaki Circle, Paparoa, Northland, 0571, New Zealand",-36.1,174.231447,,Logan Holt,Active
RS18844,T Dempster - 6 Douglas St,"6 Douglas Street, Whangārei, Northland, 0112, New Zealand",-35.706179,174.31,,Matthew Jacobson,Active
RS18842,Classic Builders - Sukhdeep Singh,"1 Evergreen Place, Whangārei, Northland, 0110, New Zealand",-35.743395,174.316537,,Sarah Scott,Complete
RS18839,C McGillivray - 94 Kamo Rd,"94 Kamo Road, Whangārei, Northland, 0112, New Zealand",-35.704599,174.318641,,Matthew Hargood,Active
RS18830,K & D Chambers - 7 Manaaki Circle,"7 Manaaki Circle, Paparoa, Northland, 0571, New Zealand",-36.1,174.231447,,Matthew Hargood,Complete
RS18822,Summerville - 11 Lone Gum Lane,"11 Lone Gum Lane, Kerikeri, Northland, 0230, New Zealand",-35.204101,173.950947,,Sarah Scott,Active
RS18818,F Barnes - 2033 Ngunguru Rd,"2033/1 Ngunguru Road, Glenbervie, Northland, 0173, New Zealand",-35.68293,174.335591,,Nathan Walker,Active
RS18814,GJ Gardner Homes - Sue Revill,"5 Manaaki Circle, Paparoa, Northland, 0571, New Zealand",-36.1,174.231211,,Liam Crawford,Complete
RS18813,D Greenhalgh - 45 Rock Ridge Dr,"45 Rock Ridge Drive, Whangārei, Northland, 0112, New Zealand",-35.688454,174.286651,,Daniel Squires,Complete
RS18790,Far North - 225 Cullen Rd,"225 Cullen Road, Waipu, Northland, 0582, New Zealand",-36.038057,174.498764,,Logan Holt,Active
RS18789,Murray Archer 41 Sands Rd,"41 Sands Road, Glenbervie, Northland, 0173, New Zealand",-35.683223,174.342404,,David Platt,Complete
RS18778,Nicola Hartwell 7 Breakers Lane,"7 Breakers Lane, Whangārei Heads, Northland, 0174, New Zealand",-35.841389,174.57,,Nathan Walker,Complete
RS18775,John Greensmith - 873 Whareora Rd,"873 Whareora Road, Whareora, Northland, 0175, New Zealand",-35.686272,174.401332,,Matthew Jacobson,Active
RS18768,"Kaikohe East School - Block 1,3,12","36 Mangakahia Road, Kaikohe, Northland, 0405, New Zealand",-35.41,173.806567,,Liam Crawford,Active
RS18745,Scope Building services - 2102 Whangarei Heads Rs,"2102 Whangarei Heads Road, Whangārei Heads, Northland, 0174, New Zealand",-35.82,174.504408,,Matthew Jacobson,Complete
RS18736,Signature Homes - Hempstead 13 Taranga Rd,"13 Taranga Road, Langs Beach, Northland, 0582, New Zealand",-36.046073,174.531124,,Harry Lee,Complete
RS18730,Warren Topp - 71a Cullen St,"71a Cullen Street, Mangawhai, Northland, 0505, New Zealand",-36.081506,174.585713,,Logan Holt,Active
RS18727,Classic Builders - Jones 14 Stonedale Way,"14 Stonedale Way, Whangārei, Northland, 0185, New Zealand",-35.694929,174.265502,,Sarah Scott,Active
RS18702,MTMD Developments Group,"237 Marsden Point Road, Ruakākā, Northland, 0116, New Zealand",-35.881628,174.45213,,David Platt,Job incomplete
RS18698,GJ Gardner Homes - Maran 22 Oturu Pl,"22 Oturu Place, Tutukaka, Northland, 0173, New Zealand",-35.614051,174.522567,,Liam Crawford,Active
RS18696,GJ Gardner Homes - Te Maika Road,"Te Maika Road,, Ngunguru, Ngunguru, 0173, New Zealand",-35.627277,174.518906,,Liam Crawford,Complete
RS18683,Signature Homes - McKinney 10b Coastview Lane,"10B Coastview Lane, Mangawhai, Northland, 0975, New Zealand",-36.137794,174.585787,,Harry Lee,Complete
RS18680,Syddall Family Trust - 111 Webb Rd,"111 Webb Road, Helena Bay, Northland, 0184, New Zealand",-35.438599,174.362111,,Harry Lee,Complete
RS18677,GJ Gardner Homes - Parkes 440 South Rd,"440 South Road, Waipu, Northland, 0582, New Zealand",-36.02,174.462734,,Liam Crawford,Active
RS18668,Claire and James Varcoe 35 Sorrento St,"35 Sorrento Street, Whangārei, Northland, 0110, New Zealand",-35.745849,174.37,,Liam Crawford,Active
RS18667,WHG Airport Terminal,"23 Handforth Street, Whangārei, Northland, 0110, New Zealand",-35.767188,174.365726,,Rachel Wright,Complete
RS18665,HPMT Tarewa Early Childhood - 78 Tarewa Rd,"78 Tarewa Road, Whangārei, Northland, 0110, New Zealand",-35.734019,174.313051,,Liam Crawford,Active
RS18663,Hukerenui School - Two new classrooms,"9 Crows Nest Road, Hūkerenui, Northland, 0182, New Zealand",-35.52,174.196853,,Matthew Jacobson,Complete
RS18657,Martin & Frances James - 48 Lake Ora Rd,"48 Lake Ora Road, Whangārei, Northland, 0112, New Zealand",-35.694514,174.284823,,Sarah Scott,Active
RS18655,Horeke School BoT - Block 1,"2230 Horeke Road, Horeke, Northland, 0475, New Zealand",-35.36,173.58,,Liam Crawford,Active
RS18654,DHS Construction - 15 James St,"15 James Street, Whangārei, Northland, 0110, New Zealand",-35.724969,174.321313,,Matthew Hargood,Complete
RS18649,GJ Gardner Homes - Van Beek 50 Second Ave,"50 Second Avenue, Whangārei, Northland, 0110, New Zealand",-35.728022,174.312105,,Codie Hay,Complete
RS18630,Regan Boon,"62 Rock Ridge Drive, Whangārei, Northland, 0112, New Zealand",-35.688754,174.285936,,Liam Crawford,Active
RS18604,Coastal Foundations Ltd,"207 Meikle Road, Tomarata, Auckland, 0974, New Zealand",-36.211061,174.665423,,Logan Holt,Active
RS18601,Caitlin Gill & Liz Mitchell,"453 Rockell Road, Whananaki, Northland, 0181, New Zealand",-35.483833,174.45,,David Platt,Active
RS18583,RG Classrooms + W Block HPMT,"78 Tarewa Road, Whangārei, Northland, 0110, New Zealand",-35.734019,174.313051,,Harry Lee,Complete
RS18582,Homeworld - Manning,"662 Cove Road, Waipu, Northland, 0582, New Zealand",-36.023088,174.495732,,Matthew Hargood,Complete
RS18545,Northland Forest Mangers,"Morgan Road, Titoki, Titoki, 0172, New Zealand",-35.758355,174.011828,,Daniel Squires,Complete
RS18497,Lisa & Brett Halvorson,"22 George Point Road, Whangārei, Northland, 0110, New Zealand",-35.74694,174.358168,,Matthew Hargood,Complete
RS18494,Classic Builders - Phillips,"20 Blue Moon Rise, Langs Beach, Northland, 0582, New Zealand",-36.04,174.522546,,Sarah Scott,Active
RS18455,Jason Young,"30 Breton Drive, Waipu, Northland, 0510, New Zealand",-35.98,174.445732,,David Platt,Active
RS18416,Jess & Jesse McDowell,"23 Edkins Road, Kerikeri, Northland, 0230, New Zealand",-35.211836,173.958033,,Liam Crawford,Complete
RS18391,Signature Homes - Muir & Clark,"33 Taranga Road, Langs Beach, Northland, 0582, New Zealand",-36.047137,174.532458,,Harry Lee,Complete
RS18381,Liddell - 25 Urquhart Bay Rd,"25 Urquhart Bay Road, Whangārei Heads, Northland, 0174, New Zealand",-35.84259,174.53686,,Harry Lee,Active
RS18337,Signature Homes - McConnell,"57B Clapham Road, Whareora, Northland, 0175, New Zealand",-35.69,174.34,,Harry Lee,Complete
RS18321,Bob & Jude Gillespie,"1927 Whangarei Heads Road, Whangārei Heads, Northland, 0174, New Zealand",-35.805256,174.501943,,David Platt,Complete
RS18309,Koru Investments Family Trust,"17 Reservoir Rise, Whangārei, Northland, 0110, New Zealand",-35.745512,174.326186,,Matthew Hargood,Complete
RS18307,Anna & Mike Nyseen,"7 Whangaumu Street, Tutukaka, Northland, 0173, New Zealand",-35.633818,174.525045,,Matthew Hargood,Complete
RS18283,Kevin & Sharon Scott,"59 Waipuna Road, Whangārei, Northland, 0110, New Zealand",-35.767603,174.273617,,Rachel Wright,Complete
RS18278,Waimarie O Whatitiri Marae Trust,"131 Draffin Road, Poroti, Northland, 0179, New Zealand",-35.723365,174.124102,,Matthew Jacobson,Active
RS18276,Shane Attwood,"600 Crows Nest Road, Riponui, Northland, 0182, New Zealand",-35.551871,174.17,,David Platt,Active
RS18253,K Fowler Homes - Singh-Ferreira,"9 Rock Ridge Drive, Whangārei, Northland, 0112, New Zealand",-35.687751,174.287102,,David Platt,Complete
RS18229,Bella Homes - Hollis - 2367 Whangarei Heads Rd,"2367 Whangarei Heads Road, Whangārei Heads, Northland, 0174, New Zealand",-35.827315,174.528788,,Matthew Hargood,Complete
RS18224,Harry and Emma Semenoff,"6 Harcourt Close, Whangārei, Northland, 0175, New Zealand",-35.707447,174.518985,,Rachel Wright,Defects/PS4
RS18219,GJ Gardner Homes - Tuenisson,"49 Kaurinui Crescent, Whangarei, Northland, 0118, New Zealand",-35.831564,174.462399,,Codie Hay,Complete
RS18189,BI & EE Cook Family Trust,"6 Cookham Place, Whangārei, Northland, 0179, New Zealand",-35.738693,174.260987,,Matthew Jacobson,Active
RS18185.1,Bream Bay College Horticulture,"2 Peter Snell Road, Ruakākā, Northland, 0116, New Zealand",-35.876364,174.455559,,Harry Lee,Complete
RS18185,Bream Bay College,"2 Peter Snell Road, Ruakākā, Northland, 0116, New Zealand",-35.876364,174.455559,,Rachel Wright,Complete
RS18171,Hurupaki School,"20 Dip Road, Whangārei, Northland, 0112, New Zealand",-35.686969,174.29,,Harry Lee,Complete
RS18161,Homeworld - O'Sullivan,"Admiral Way, Tutukaka, Tutukaka, 0173, New Zealand",-35.611738,174.523759,,Matthew Hargood,Active
RS18058,PCM 49E Vale Rd,"49E Vale Road, Whangārei, Northland, 0112, New Zealand",-35.715155,174.33,,Rachel Wright,Complete
RS18057,Okokako Downs Ltd,"XX Okokako Road, Waimate North, Northland, 0293, New Zealand",-35.301273,173.912002,,Matthew Jacobson,Active
RS18024,Kevin & Rhonda Weeks,"28 Pigeon Berry Lane, Mangawhai, Northland, 0573, New Zealand",-36.091803,174.534958,,Matthew Jacobson,Active
RS18015,Compac Furniture,"10 Mako Street, Dargaville, Northland, 0372, New Zealand",-35.931157,173.887086,,Matthew Jacobson,Complete
RS17982,D & L Smith,"XX Component not found, Tamaterau, Northland, 0174, New Zealand",-35.786113,174.426628,,Daniel Squires,Active
RS17960,Scott Hargood,"171 Abbey Caves Road, Whangārei, Northland, 0175, New Zealand",-35.715511,174.353677,,Matthew Hargood,Active
RS17952,Tim Hurring,"6 Tern Lane, Whananaki, Northland, 0181, New Zealand",-35.507184,174.462298,,Rachel Wright,Complete
RS17908,McKenzie Family Trust,"187C Te Rongo Road, Parua Bay, Northland, 0174, New Zealand",-35.768362,174.441286,,Matthew Jacobson,Active
RS17817,Snoxell,"193 Huaroa Road, Russell, Northland, 0272, New Zealand",-35.267963,174.157177,,Daniel Squires,Complete
RS17814,Mathew Forsyth - Lot 30,"XX Russell Whakapara Road, Russell, Northland, New Zealand",-35.298229,174.191621,,Matthew Hargood,Complete
RS17763,Ted Pakenham,"13 North Crest Drive, Whangārei, Northland, 0110, New Zealand",-35.744932,174.3713,,Matthew Jacobson,Complete
RS17744,Grant Harris,"16 Starlight Place, Waipu, Northland, 0582, New Zealand",-36.04,174.524338,,Rachel Wright,Complete
RS17726,Martin Pettigrew,"38 Sea View Road, Baylys Beach, Northland, 0377, New Zealand",-35.95,173.746152,,Matthew Jacobson,Active
RS17706,Commercial Property Maintenance,"19 Pine Tree Lane, Russell, Northland, 0272, New Zealand",-35.285253,174.11497,,Matthew Jacobson,Complete
RS17643,Dargaville Honda relocation,"94 Jervois Street, Dargaville, Northland, 0372, New Zealand",-35.932005,173.884591,,Harry Lee,Complete
RS17612,Maria & Rodd Hodgson,"50 Dolphin Place, Tutukaka, Northland, 0173, New Zealand",-35.63,174.54,,Daniel Squires,Active
RS17533,Chandrakala Subramaniam,"12 Sea Dune Place, Ruakākā, Northland, 0116, New Zealand",-35.888265,174.455565,,David Platt,Complete
RS17518,Peter Blake,"424 Brooks Road, Waipu, Northland, 0582, New Zealand",-36.027736,174.386544,,Harry Lee,Complete
RS17460,Waitoto Developments Lot 7,"5914 Russell Whakapara Road, Russell, Northland, 0272, New Zealand",-35.286728,174.14904,,Matthew Hargood,Active
RS17459,Waitoto Developments Lot 2,"3 Tikitiki Lane, Russell, Northland, 0272, New Zealand",-35.285312,174.149057,,Matthew Hargood,Active
RS17453,Vivienne Rowell,"419 Rockell Road, Whananaki, Northland, 0181, New Zealand",-35.485624,174.45,,Rachel Wright,Complete
RS17406,P Stewart & L Fisher,"1085 Matapouri Road, Matapouri, Northland, 0173, New Zealand",-35.564106,174.49398,,Daniel Squires,Active
RS17261,Waelen Tony,"78 Scott Road, Tamaterau, Northland, 0174, New Zealand",-35.78252,174.418392,,Matthew Hargood,Active
RS17176,Paterson R D,"24 The Ridge, Kerikeri, Northland, 0230, New Zealand",-35.23,173.94,,Matthew Hargood,Active
RS17156,Moore Cilla & Harrison Richard,"1856 Whangarei Heads Road, Whangārei Heads, Northland, 0174, New Zealand",-35.8,174.5,,David Platt,Complete
RS17028,Bennett Michael - 17 Chilcott Rd,"17 Chilcott Road, Whananaki, Northland, 0181, New Zealand",-35.507187,174.46,,Daniel Squires,Complete
RS16982,Elliott Jack - 2 North Ridge Rise,"2 North Ridge Rise, Whangārei, Northland, 0179, New Zealand",-35.731292,174.25,,Rachel Wright,Complete
RS16974,Homeworld - King,"50 Bellevue Way, Whangārei, Northland, 0170, New Zealand",-35.785341,174.288142,,Matthew Jacobson,Complete
RS16972,Kotata - Stage 6,"XX High Street, Whangārei, Northland, 0110, New Zealand",-35.741234,174.314033,,Matthew Jacobson,Complete
RS16971,Kotata - Stage 5,"XX High Street, Whangārei, Northland, 0110, New Zealand",-35.741234,174.314033,,Matthew Jacobson,Complete
RS16838,Fukuoka Takeo,"318B Whau Valley Road, Whangārei, Northland, 0112, New Zealand",-35.704261,174.291929,,Matthew Hargood,Active
RS16779,Pakotai School,"3376 Mangakahia Road, Pakotai, Northland, 0172, New Zealand",-35.69,173.9,,Harry Lee,Complete
RS16743,Projects & Infrastructure Holdings Pty Ltd - 7 Tapeka Road,"7 Tapeka Road, Russell, Northland, 0202, New Zealand",-35.247048,174.118977,,Nathan Walker,Active
RS16678,Mulligan Bruce & Sonia,"550 State Highway 14, Whangārei, Northland, 0179, New Zealand",-35.738985,174.265348,,Matthew Hargood,Active
RS16650,Golden Homes - Fraser Nathan,"282D Waimate North Road, Kerikeri, Northland, 0293, New Zealand",-35.256709,173.9,,Matthew Jacobson,Complete
RS16488,Classic Developments LP - 2 Sands Road,"2 Sands Road, Glenbervie, Northland, 0173, New Zealand",-35.682014,174.338276,,Sarah Scott,Active
RS16382,Sisam Rodney,"2 Powhaitere Road, One Tree Point, Northland, 0118, New Zealand",-35.83,174.46,,Matthew Jacobson,Complete
RS16354,J and R Rowe - 51 Doves Bay Rd,"51 Doves Bay Road, Kerikeri, Northland, 0294, New Zealand",-35.193512,174.029358,,Matthew Hargood,Active
RS16233,Rod Holdings,"95 Nova Scotia Drive, Waipu, Northland, New Zealand",-35.977589,174.452863,,Matthew Jacobson,Active
RS15661,Hermann M and R,"1070 Wainui Road, Kaeo, Northland, 0478, New Zealand",-35.02,173.82444,,Matthew Hargood,Complete
RS15146,Tuck Ollie,"432 Prescott Road, Ruakākā, Northland, 0171, New Zealand",-35.915827,174.404154,,Daniel Squires,Complete
RS13783,Hansen J,"53 Roose Rise, Maungatapere, Northland, 0179, New Zealand",-35.77898,174.184269,,Gareth Turner,Complete
RS19065,HPMT - 183 Lower Dent Street,"183 Lower Dent Street, Whangārei, Northland, 0110, New Zealand",-35.72791,174.330582,,Matthew Hargood,Active
RS19064,WDC -  Pohe Island Shelter - Pohe Island Road,"Pohe Island Road, Parahaki, Whangārei, 0112, New Zealand",-35.731296,174.338135,,Matthew Hargood,Active
RS19063,Bellingham Farms - 181 McCardle Road,"181 McCardle Road, Titoki, 0172, New Zealand",-35.717105,174.065033,,Matthew Jacobson,Active
RS19062,Matarau School - 124 Matarau Road,"124 Matarau Road, Matarau, 0185, New Zealand",-35.657562,174.221909,,Harry Lee,Active
RS19061,Wright - 42 Kihi Place,"42 Kihi Place, Ruakākā, 0116, New Zealand",-35.91209,174.457245,,Liam Crawford,Complete
RS19060,Barrett Homes - Hickling - 34 Sands Road,"34 Sands Road, Glenbervie, Glenbervie, 0173, New Zealand",-35.681427,174.339432,,Sarah Scott,Job cancelled
RS19059,GJ Gardner - Glover - 49 Kaurinui Crescent,"49 Kaurinui Crescent, Whangarei, 0118, New Zealand",-35.831565,174.4624,,Liam Crawford,Complete
RS19058,Latitude - Moller - Vineyard Lane,"Vineyard Lane, Mangawhai, 0975, New Zealand",-36.138443,174.5629,,Matthew Hargood,Active
RS19057,Signature - Robertson - 3 Te Taniwha Road,"3 Te Taniwha Road, Whangārei, 0118, New Zealand",-35.833313,174.46106,,Nathan Walker,Complete
RS19056,Signature - Leightley - Pegasus Lane,"Pegasus Lane, Langs Beach, 0582, New Zealand",-36.038932,174.521835,,Nathan Walker,Active
RS19055,Classic - Grace & Poulose - 14 Sylvia Lane,"14 Sylvia Lane, Maunu, Whangārei, 0110, New Zealand",-35.752643,174.275574,,Sarah Scott,Complete
RS19054,McDiarmid Perez - 2 Grant Street,"2 Grant Street, Te Kamo, Whangārei, 0112, New Zealand",-35.683223,174.301086,,Matthew Hargood,Active
RS19053,Whittaker - 68 Spioenkop Road,"68 Spioenkop Road, Mangawhai, 0573, New Zealand",-36.086734,174.527557,,Logan Holt,Active
RS19052,Classic - Nair Kumar - 52 Hawken Road,"52 Hawken Road, Maunu, Whangārei, 0179, New Zealand",-35.73966,174.2359,,Sarah Scott,Active
RS19051,Signature - Rathke - 64 Kedge Drive,"64 Kedge Drive, Mangawhai, 0505, New Zealand",-36.130245,174.5714,,Nathan Walker,Active
RS19050,Holwell - 260 Apotu Road,"260 Apotu Road, Kauri, 0185, New Zealand",-35.62938,174.282959,,Matthew Jacobson,Active
RS19049,Frandi - 29 Whangarei Heads Road,"29 Whangarei Heads Road, Onerahi, Whangārei, 0110, New Zealand",-35.76027,174.371353,,Ryan Jenner,Active
RS19048,Corkin - 376 Tara Road,"376 Tara Road, Mangawhai, 0573, New Zealand",-36.10983,174.532928,,Matthew Jacobson,Active
RS19047,Gill - 415 Crane Road,"415 Crane Road, Kauri, 0185, New Zealand",-35.643142,174.271133,,Sarah Scott,Active
RS19046,Alistair Watt -396 Ocean View Road,"396 Ocean View Road, Wellsford, 0974, New Zealand",-36.191616,174.621033,,Matthew Jacobson,Active
RS19045,Tikipunga Primary - 11 Tania Place,"11 Tania Place, Tikipunga, Whangārei, 0112, New Zealand",-35.685802,174.323761,,Matthew Jacobson,Complete
RS19044,Versatile - Wesleyan Church - 53 Murdoch Crescent,"53 Murdoch Crescent, Raumanga, Whangārei, 0110, New Zealand",-35.745182,174.303635,,David Platt,Design
RS19042,"Johnstone - 47 Seascape Crescent, Waipu","47 Seascape Crescent, Waipu, Northland, 0582, New Zealand",-35.99643,174.470734,,Matthew Hargood,Design
RS19041,"GJ Gardner - Clotworthy - 9 Roderick Place, Onerahi","9 Roderick Place, Whangārei, Northland, 0110, New Zealand",-35.743793,174.3672,,Liam Crawford,Active
RS19040,"McNamara & Danks - Beveridge Road, One Tree Point,","Beveridge Road,, One Tree Point, 0118, New Zealand",-35.832004,174.456223,,David Platt,Complete
RS19039,Hutchinson - 321 Ngunguru Road,"321 Ngunguru Road, Glenbervie, Northland, 0173, New Zealand",-35.667125,174.359848,,Matthew Jacobson,Active
RS19038,"GJ Gardner - TVL - 41 Te Taniwha Road, One Tree Point","41 Te Taniwha Road, Whangārei, Northland, 0118, New Zealand",-35.835174,174.458664,,Liam Crawford,Active
RS19037,Simmonds - 3 Panekaira Road,"3 Panekaira Road, Mangapai, Northland, 0178, New Zealand",-35.838527,174.285568,,Matthew Jacobson,Active
RS19036,Signature Homes - Reed - 486 Whareora Road,"486 Whareora Road, Whareora, Northland, 0175, New Zealand",-35.696598,174.370438,,Nathan Walker,Complete
RS19035,Springford - Kensington Heights Ltd - 6 Kensington Heights Rise,"6 Kensington Heights Rise, Whangārei, Northland, 0112, New Zealand",-35.707233,174.305939,,Matthew Jacobson,Active
RS19034,Advance Build - Deeming - 77 Valley View Road,"77 Valley View Road, Otaika, Northland, 0170, New Zealand",-35.78695,174.293991,,Matthew Jacobson,Active
RS19033,Padden -  22 Awa Glade Lane,"22 Awa Glade Lane, Whangārei, Northland, 0112, New Zealand",-35.69017,174.334946,,David Platt,Design
RS19032,"Tikipunga Primary School BOT - Block 2, 11 Tania Place","11 Tania Place, Whangārei, Northland, 0112, New Zealand",-35.685802,174.323761,,Harry Lee,Active
RS19031,Tikipunga Primary School BOT - Block 1&2 - 11 Tania Place,"11 Tania Place, Whangārei, Northland, 0112, New Zealand",-35.685802,174.323761,,Liam Crawford,Active
RS19030,Far North Holdings - 69 Marsden Road,"69 Marsden Road, Paihia, Northland, 0200, New Zealand",-35.281192,174.092392,,Rachel Wright,Complete
RS19029,NZ Carbon Farming - Pupuke Mangapa Road,"Pupuke Mangapa Road, Kaeo, Northland, New Zealand",-35.133144,173.6868,,Matthew Hargood,Complete
RS19028,The Russell Trust - Atwell - 37 - 39 Long Beach Road,"37 Long Beach Road, Russell, 0202, New Zealand",-35.258747,174.128815,,Matthew Jacobson,Active
RS19027,Waiharara School  -  8 Katavich Road,"8 Katavich Road, Waiharara, 0484, New Zealand",-34.935146,173.185715,,Matthew Jacobson,Complete
RS19026,Te Houhanga a Rongo Marae - 498 Station Road,"498 Station Road, Dargaville, Northland, 0310, New Zealand",-35.93524,173.850235,,Rachel Wright,Active
RS19025,Hukerenui School - 9 Crows Nest Road,"9 Crows Nest Road, Hūkerenui, Northland, 0182, New Zealand",-35.5206,174.196854,,Matthew Jacobson,Active
RS19024,Meadows - 14 Koromiko Lane,"14 Koromiko Lane, Whangārei, Northland, 0175, New Zealand",-35.699497,174.339478,,Matthew Jacobson,Active
RS19023,HPMT Group - Hikurangi Units - 60 View Road,"60 View Road, Hikurangi, Northland, 0114, New Zealand",-35.592765,174.278641,,Harry Lee,Active
RS19022,MOE - Matarau School (Master Plan) - 124 Matarau Road,"124 Matarau Road, Matarau, Northland, 0185, New Zealand",-35.657562,174.221909,,Matthew Jacobson,Active
RS19021,Blampied (Lanco Group Ltd) - 1181 Pipiwai Road,"1181 Pipiwai Road, Ruatangata West, Northland, 0176, New Zealand",-35.66042,174.1798,,Matthew Jacobson,Active
RS19020,Pateke Springs Family Trust - 86 Springs Road,"86 Springs Road, Poroti, Northland, 0179, New Zealand",-35.768737,174.118225,,Sarah Scott,Active
RS19019,MOE - Dargaville Primary School,"Portland Street, Dargaville, 0310, New Zealand",-35.93929,173.867935,,Matthew Jacobson,Active
RS19018,Moore - 1821 Ngunguru Road,"1821 Ngunguru Road, Ngunguru, Northland, 0173, New Zealand",-35.63552,174.491791,,Sarah Scott,Complete
RS19017,GJ Gardner- Honiss - 3 Overland Way,"3 Overland Way, Whangārei, Northland, 0110, New Zealand",-35.744655,174.31633,,Liam Crawford,Complete
RS19016,Signature - Kainga Ora - 3 Tapper Crescent,"3 Tapper Crescent, Whangārei, Northland, 0112, New Zealand",-35.69056,174.330048,,Nathan Walker,Complete
RS19015,Classic - Neville Cox - 307 Mount Tiger Road,"307 Mount Tiger Road, Whareora, Northland, 0192, New Zealand",-35.716457,174.391632,,Sarah Scott,Active
RS19014,Smith -  88 De Boer Lane,"88 De Boer Lane, Mangawhai, 0573, New Zealand",-36.105686,174.5396,,Logan Holt,Active
RS19013,Scotch Thistle Properties Ltd - 1267 Church Road,"1267 Church Road, Kaingaroa, Northland, 0482, New Zealand",-35.054733,173.324936,,Matthew Jacobson,Complete
RS19012,Waldgrave - 255 Ocarroll Road,"255 Ocarroll Road, Maungakaramea, 0178, New Zealand",-35.863372,174.174408,,Matthew Jacobson,Complete
RS16645,Peter Williams - Williams Family Trust,"88 Bank Street, Whangārei, Northland, 0110, New Zealand",0.0,0.0,,Rachel Wright,Waiting on client/architect
RS14077,M Patel (ref 18248),"55 Gillies Street, Kawakawa, Northland, 0210, New Zealand",0.0,0.0,,Rachel Wright,Complete
RS12788,Denise and Company Ltd,"984 Whananaki South Road, Whananaki, Northland, 0181, New Zealand",0.0,0.0,,Rachel Wright,Complete
RS16317,Whangarei Aluminium,"327 Port Road, Whangārei, Northland, 0110, New Zealand",0.0,0.0,,Matthew Jacobson,Defects/PS4
RS18133,Norman Wallace,"133 Marsden Bay Drive, One Tree Point, Northland, 0118, New Zealand",0.0,0.0,,Matthew Jacobson,Complete
RS18432,MOE -  Ruawai College,"475 State Highway 12, Ruawai, Northland, New Zealand",0.0,0.0,,Matthew Jacobson,Complete
RS18592,Mark Halvorson,"2009 Whangarei Heads Road, Whangārei Heads, Northland, 0174, New Zealand",0.0,0.0,,Matthew Jacobson,Waiting on client/architect
RS18605,V Freakley,"19 Our Road, Whangārei Heads, Northland, 0174, New Zealand",0.0,0.0,,Matthew Jacobson,Waiting on client/architect
RS18621,Kamo Home & Village Charitable Trust,"49 Kamo Road, Whangārei, Northland, 0112, New Zealand",0.0,0.0,,Matthew Jacobson,Active
RS18622,MOE - Waikare School -Te Kura o Waikare,"XX Waikare Valley Road, Kawakawa, Northland, 0283, New Zealand",0.0,0.0,,Matthew Jacobson,Waiting on client/architect
RS18759,Andy Thornton,"67 Millington Road, Whangārei, Northland, 0179, New Zealand",0.0,0.0,,Matthew Jacobson,Complete
RS18763,Len Robinson,"35 Marlin Place, Tutukaka, Northland, 0173, New Zealand",0.0,0.0,,Matthew Jacobson,Complete
RS18689,Base 13 Ltd,"3 Rewa Rewa Road, Whangārei, Northland, 0110, New Zealand",0.0,0.0,,Matthew Jacobson,Complete
RS18776,Advance Build Ltd - Murphy Whanau Trust,"2590 Russell Road, Ōakura, Northland, 0184, New Zealand",0.0,0.0,,Matthew Jacobson,Waiting on client/architect
RS18824,Andrew Collings & Michelle Bristowe,"38 Mititai Road, Waiotira, Northland, 0193, New Zealand",0.0,0.0,,Matthew Jacobson,Waiting on client/architect
RS18832,Lucy Skyrme & Jez Newell - 48 Hihi Rise,"48 Hihi Rise, Whangārei, Northland, 0110, New Zealand",0.0,0.0,,Matthew Jacobson,Waiting on client/architect
RS18848,Outsource Communications Ltd- Northland Prison,"XX State Highway 12, Ōhaeawai, Northland, New Zealand",0.0,0.0,,Matthew Jacobson,Complete
RS18875,Stewart & Wendy Ruddell - 114 Austin Road,"114 Austin Road, Whangārei, Northland, 0110, New Zealand",0.0,0.0,,Matthew Jacobson,Consent pending
RS19011,"Maxon Group Ltd - 252 Victoria St, Dargaville","252 Victoria Street, Dargaville, Northland, 0310, New Zealand",-35.934097,173.884384,,Matthew Hargood,Complete
RS19010,Marusich - 1135 Matapouri Road,"1135 Matapouri Road, Matapouri, Northland, 0173, New Zealand",-35.5625,174.4905,,Sarah Scott,Design
RS19009,Pacific Rim Foods Ltd - 3 Rewa Rewa Road,"3 Rewa Rewa Road, Whangārei, 0110",-35.752292,174.310349,,Liam Crawford,Active
RS19008,Unasa - 40 Owai Avenue,"40 Owai Avenue, Helena Bay, Northland, 0184, New Zealand",-35.436843,174.3627,,Nathan Walker,Complete
RS19007,"Wood - Grey Heron Close,","Grey Heron Close, Mangawhai Heads, 0573",-36.092212,174.572,,Matthew Jacobson,Design
RS19006,GJ Gardner - Hanwood - 43 Te Taniwha Road,"43 Te Taniwha Road, Whangārei, Northland, 0118, New Zealand",-35.835033,174.4585,,Liam Crawford,Consent pending
RS19005,Taylor - 298 & 348 Tauraroa Road,"298 Tauraroa Road, Maungakaramea, 0178, New Zealand",-35.867286,174.209961,,Matthew Jacobson,Active
RS19004,Solid Holdings Ltd - 156 Stanners Road,"156 Stanners Road, Kerikeri, Northland, 0295, New Zealand",-35.171344,173.918243,,Logan Holt,Design
RS19003,Hollis - 65 Kiteone Road,"65 Kiteone Road, Parua Bay, Northland, 0174, New Zealand",-35.77402,174.486679,,David Platt,Complete
RS19002,Drinkwater - 29 Landowners Lane,"29 Landowners Lane, Tutukaka, Northland, 0173, New Zealand",-35.60676,174.527771,,Nathan Walker,Not proceeding
RS19001,Kappley - 10 Dundee Lane,"10 Dundee Lane, Waipu, Northland, 0582, New Zealand",-35.990245,174.448792,,Harry Lee,Design
RS19000,Whalley - 28 Lawson Drive,"28 Lawson Drive, Tutukaka, Northland, 0173, New Zealand",-35.63393,174.533157,,David Platt,Complete
RS18999,Anderson - 148 / 154 Commerce Street,"148 Commerce Street, Kaitaia, Northland, 0410, New Zealand",-35.112476,173.262421,,Logan Holt,Not proceeding
RS18998,Pratt - 751 Dunn Road,"751 Dunn Road, Ruawai, Northland, 0592, New Zealand",-36.057086,174.010544,,Sarah Scott,Design
RS18996,Otaika Valley School - 11 Valley Rd,"11 Valley View Road, Whangārei, Northland, 0170, New Zealand",-35.78668,174.30011,,Sarah Scott,Design
RS18995,Cain - 809 Tangihua Road,"809 Tangihua Road, Maungakaramea, Northland, 0178, New Zealand",-35.843715,174.128555,,Matthew Jacobson,Complete
RS18994,WDC - Sorrento Street,"Sorrento Street, Whangārei, Northland, 0110, New Zealand",-35.745986,174.3683,,Matthew Jacobson,Active
RS18993,Austin - 5 Bream Bay Drive,"5 Bream Bay Drive, Ruakākā, Northland, 0116, New Zealand",-35.90666,174.4535,,Nathan Walker,Complete
RS18992,Luff - 55 Pullman Lane,"55 Pullman Lane, Matapouri, 0173, New Zealand",-35.576538,174.5127,,Rachel Wright,Complete
RS18990,Oceanus - 121-123 Settlers Way,"121-123 Settlers Way, Ōkaihau, Northland, 0475, New Zealand",-35.325283,173.760925,,David Platt,Complete
RS18989,The Belle Trust - 166 Staniforth Road,"166 Staniforth Road, Kaiwaka, 0975, New Zealand",-36.18062,174.56778,,David Platt,Active
RS18988,Building Consent Approvals Ltd,"Various, New Zealand",0.0,0.0,,Rachel Wright,Active
RS18987,Skelton - 2 Heaths Way,"2 Heaths Way, Pahi, Northland, 0571, New Zealand",-36.152584,174.222672,,Logan Holt,Active
RS18986,Classic - Boyes - 18 Kiteone Road,"18 Kiteone Road, Parua Bay, Northland, 0174, New Zealand",-35.77049,174.483414,,Sarah Scott,Complete
RS18985,Pauli - 7 Erskine Road,"7 Erskine Road, Whangārei, Northland, 0110, New Zealand",-35.764034,174.276291,,David Platt,Complete
RS18984,Mandeno - 98 Franklin Road,"98 Franklin Road, Parua Bay, Northland, 0192, New Zealand",-35.74946,174.4113,,Matthew Jacobson,Complete
RS18983,Fish - 146 Tutukaka Block Road,"146 Tutukaka Block Road, Tutukaka, Northland, 0173, New Zealand",-35.621566,174.5286,,Nathan Walker,Complete
RS18980,Platt - 15 Pyle Road East,"15 Pyle Road East, Ruakākā, Northland, 0171, New Zealand",-35.831005,174.452774,,David Platt,Active
RS18979,Bates - 180 Millington Road,"180 Millington Road, Whangārei, Northland, 0179, New Zealand",-35.73071,174.235,,Codie Hay,Active
RS18978,MOE - Matauri Bay School,"2223 Whakarara Road, Matauri Bay, Northland, 0478, New Zealand",-35.043415,173.896347,,Harry Lee,Active
RS18977,Huanui Rise Ltd - 465 Ngunguru Road,"465 Ngunguru Road, Glenbervie, Northland, 0173, New Zealand",-35.662143,174.377365,,Matthew Jacobson,Design
RS18976,Doar - 26 Reotahi Road,"26 Reotahi Road, Whangārei Heads, Northland, 0174, New Zealand",-35.817733,174.497574,,David Platt,Not proceeding
RS18974,Storm Trust - Motel Road,"Motel Road, Tutukaka, Northland, 0173, New Zealand",-35.62195,174.535461,,Matthew Jacobson,Design
RS18973,Monro - 14 Brando Lane,"14 Brando Lane, Whangārei, Northland, 0110, New Zealand",-35.76333,174.368134,,David Platt,Job cancelled
RS18972,Ross - 933 Taiharuru Road,"933 Taiharuru Road, Whangārei, Northland, 0192, New Zealand",-35.71861,174.558853,,Liam Crawford,Design
RS18970,Pakaraka Holdings - 31 Smeath Road,"31 Smeath Road, Kawakawa, Northland, 0210, New Zealand",-35.387615,174.065887,,Matthew Jacobson,Design
RS18969,Cockton - 11 Omahu Nui Way,"11 Omahu Nui Way, Ōakura, Northland, 0184, New Zealand",-35.384395,174.3425,,Matthew Jacobson,Design
RS18968,Homeworld - Law 5 Rangikorero Pl,"5 Rangikorero Place, Whangārei Heads, Northland, 0174, New Zealand",0.0,0.0,,Matthew Hargood,Active
RS18967,Kelly Construction Ltd - 202 Taipa Heights Dr,"202 Taipa Heights Drive, Taipa, Northland, 0420, New Zealand",0.0,0.0,,Matthew Jacobson,Active
RS18965,Sean Tuckey - 21 Opau Rd,"21 Opau Road, Ōakura, Northland, 0184, New Zealand",0.0,0.0,,Matthew Jacobson,Complete
RS18964,Reyburn & Bryant - Waiwarawara Drive,"Waiwarawara Drive, Ruakākā, Northland, 0171, New Zealand",0.0,0.0,,Sarah Scott,Active
RS18963,Rodger & Barbara Palmer - 702 Springfield Rd,"702 Springfield Road, Springfield, Northland, 0178, New Zealand",0.0,0.0,,David Platt,Active
RS18962,Carrie de Hennezel,"370A Matapouri Road, Tutukaka, Northland, 0173, New Zealand",0.0,0.0,,David Platt,Complete
RS18960,Tristan  & Narelle Tuckey - 112 Lauries Dr,"112 Lauries Drive, Kauri, Northland, 0185, New Zealand",0.0,0.0,,Matthew Jacobson,Active
RS18958,Ngunguru School - (Water Tanks) - 1 Te Maika Rd,"1 Te Maika Road, Ngunguru, Northland, 0173, New Zealand",0.0,0.0,,Sarah Scott,Active
RS18956,Classic Builders - Heather Osborne 274A Whau Valley Rd,"274A Whau Valley Road, Whangārei, Northland, 0112, New Zealand",0.0,0.0,,Sarah Scott,Complete
RS18954,Versatile Buildings (Building Northland Ltd) - 161 Tara Rd,"161 Tara Road, Mangawhai, Northland, 0573, New Zealand",0.0,0.0,,David Platt,Complete
RS18953,Advance Build - Panapa 213 Ahikiwi Rd,"213 Ahikiwi Road, Kaihu, Northland, 0373, New Zealand",-35.791187,173.72876,,Sarah Scott,Active
RS18952,Selwyn Adam - 40 Sail Rock Rd,"40 Sail Rock Road, Ruakākā, Northland, 0171, New Zealand",0.0,0.0,,Matthew Jacobson,Complete
RS18951,Te Pouahi o Te Taitokerau Trust - Te Ra Road,"XX Te Ra Road, Kaeo, Northland, 0295, New Zealand",0.0,0.0,,Matthew Jacobson,Active
RS18949,Mark Simpson - 5 Taonga Lane,"5 Taonga Lane, Tutukaka, Northland, 0173, New Zealand",-35.625412,174.533432,,Nathan Walker,Complete
RS18948,Wendy Williams - 301 Nook Rd,"301 Nook Road, Parua Bay, Northland, 0174, New Zealand",0.0,0.0,,Matthew Jacobson,Active
RS18947,MOE - Maunu School - Hall flooding & WWM,"13 Austin Road, Whangārei, Northland, 0110, New Zealand",0.0,0.0,,Matthew Jacobson,Active
RS18946,Reyburn & Bryant -Building and Carpark 55 Whaka St,"55 Whaka Street, Maungaturoto, Northland, 0520, New Zealand",0.0,0.0,,Matthew Jacobson,Active
RS18945,Peter & Nikki Davies Colley - 754 Matapouri Rd,"754 Matapouri Road, Matapouri, Northland, 0173, New Zealand",0.0,0.0,,David Platt,Active
RS18944,MOE - Peria School,"1430 Oruru Road, Peria, Northland, 0482, New Zealand",0.0,0.0,,Matthew Jacobson,Active
RS18941,MOE - Hikurangi School,"8 Valley Road, Hikurangi, Northland, 0114, New Zealand",0.0,0.0,,Matthew Jacobson,Complete
RS18940,Alan Lints - 42 Owai Ave,"42 Owai Avenue, Helena Bay, Northland, 0184, New Zealand",0.0,0.0,,David Platt,Complete
RS18939,Jake Dromgool & Lynn Mack - 35 Tui Glen Rd,"35 Tui Glen Road, Haruru, Northland, 0204, New Zealand",0.0,0.0,,Matthew Hargood,Complete
RS18938,Craig & Ruth Smallwood - 7 Tuatara Dr,"7 Tuatara Drive, Whangārei, Northland, 0112, New Zealand",0.0,0.0,,Liam Crawford,Complete
RS18936,MOE - Paparore School BoT,"157 West Coast Road, Waipapakauri, Northland, 0486, New Zealand",0.0,0.0,,Codie Hay,Complete
RS18935,MOE - Waiharara School BoT,"8 Katavich Road, Waiharara, Northland, 0484, New Zealand",0.0,0.0,,Matthew Jacobson,Complete
RS18932,Kelly Illerbrun - 8 Wellington St,"8 Wellington Street, Russell, Northland, 0202, New Zealand",0.0,0.0,,Sarah Scott,Active
RS18930,Signature Homes - Traverse 4 Rihi Paea Rise,"4 Rihi Paea Rise, Ngunguru, Northland, 0173, New Zealand",0.0,0.0,,Harry Lee,Complete
RS18928,Ruoxi Zhang - 551 Owhiwa Rd,"551 Owhiwa Road, Parua Bay, Northland, 0192, New Zealand",0.0,0.0,,Sarah Scott,Design
RS18926,MOE - Blomfield Specialist School,"13 Cooke Street, Whangārei, Northland, 0110, New Zealand",0.0,0.0,,Matthew Jacobson,Design
RS18925,Carin Wilson - 163 The Cresent,"163 The Crescent, Langs Beach, Northland, 0582, New Zealand",0.0,0.0,,David Platt,Complete
RS18923,L & K Bradley - 101 Taraunui Road,"101 Taraunui Road, Parua Bay, Northland, 0192",0.0,0.0,,Sarah Scott,Construction
RS18922,GJ Gardner Homes - Caulfield 6 Bonnie Doon Pl,"6 Bonnie Doon Place, Whangārei, Northland, 0185, New Zealand",0.0,0.0,,Liam Crawford,Design
RS18921,Okara Shopping Centre Ltd - Okara Dr,"XX Okara Drive, Whangārei, Northland, 0110, New Zealand",0.0,0.0,,Matthew Hargood,Complete
RS18920,MOE - Ohaeawai Primary School,"22 Tennyson Street, Ōhaeawai, Northland, 0472, New Zealand",0.0,0.0,,Matthew Jacobson,Design
RS18918,Lenets - Thornburn Rd,"Thorburn Road, Ruatangata West, Ruatangata West, 0176, New Zealand",-35.667602,174.2086,,David Platt,Complete
RS18917,Signature Homes - 675 Millbrook Rd,"675 Millbrook Road, Waipu, 0582",0.0,0.0,,Harry Lee,Complete
RS18916,MOE - Awanui School,"172 State Highway 1, Awanui, Northland, 0486, New Zealand",-35.03943,173.254135,,Matthew Jacobson,Design
RS18915,MOE - Bay of Islands College,"1-9 Derrick Road, Kawakawa, Northland, 0210, New Zealand",0.0,0.0,,Matthew Jacobson,Design
RS18911,Morgan Project Services (BAU) Ltd - Dutto 18 Ranfurly Place,"18 Ranfurly Place, Whangārei, Northland, 0112, New Zealand",0.0,0.0,,Matthew Jacobson,Active
RS18908,Main 4 Architects Ltd - 7 Tapeka Heights Lane,"7 Tapeka Heights Lane, Russell, Northland, 0202, New Zealand",0.0,0.0,,Nathan Walker,Design
RS18906,Carrot Family Trust - 19 Dune View Dr,"19 Dune View Drive, Mangawhai, Northland, 0505, New Zealand",0.0,0.0,,Matthew Hargood,Complete
RS18905,Homeworld - Ellis 14 Hall Road,"14 Hall Road, Pataua North, Northland, 0175, New Zealand",0.0,0.0,,Matthew Hargood,Consent pending
RS18904,MOE - Opononi Area School BoT,"263 Hokianga Harbour Drive, Ōmāpere, Northland, 0473, New Zealand",0.0,0.0,,Matthew Hargood,Complete
RS18903,Adam Thompson - 5 Boswell Street,"5 Boswell Street, Kawakawa, Northland, 0210, New Zealand",0.0,0.0,,Matthew Jacobson,Design
RS18900,Yeungjun Yoo - 7 Church Street,"7 Church Street, Whangārei, 0110",0.0,0.0,,Matthew Jacobson,Active
RS18899,Jessica & Joel Caisley - 123 Memorial Drive,"123 Memorial Drive, Whangārei, Northland, 0112, New Zealand",0.0,0.0,,Sarah Scott,Design
RS18897,R Varley - 27 Dip Road,"27 Dip Road, Whangārei, Northland, 0112, New Zealand",0.0,0.0,,Harry Lee,Complete
RS18894,Wayne & Kelly Sandford - Finlayson Brook Rd,"XX Finlayson Brook Road, Waipu, Northland, New Zealand",0.0,0.0,,Matthew Jacobson,Complete
RS18889,GJ Gardner Homes - Winters 33 Seascape Crescent,"33 Seascape Crescent, Waipu, Northland, 0582, New Zealand",0.0,0.0,,Liam Crawford,Design
RS18887,Advance Build - New Papakainga 29 Araroa Road,"29 Araroa Road, Ahipara, Northland, 0481, New Zealand",0.0,0.0,,Matthew Jacobson,Design
RS18885,Mangawhai Activity Zone Charitable Trust 191 Molesworth Drive,"191 Molesworth Drive, Mangawhai, Northland, 0505, New Zealand",0.0,0.0,,Logan Holt,Design
RS18883,Sunshine Homes & Cabins Ltd - 54 Miro Road,"54 Miro Road, Ruatangata West, Northland, 0176, New Zealand",0.0,0.0,,Daniel Squires,Complete
RS18882,Tony Smith - Kamo Home and Village 31 Ford Avenue,"31 Ford Avenue, Whangārei, Northland, 0112, New Zealand",0.0,0.0,,Harry Lee,Complete
RS18881,Christiaan Jaco Bornman - 251 Kaiikanui Road,"251 Kaiikanui Road, Opuawhanga, Northland, 0181, New Zealand",0.0,0.0,,Matthew Jacobson,Construction
RS18879,Signature Homes - Larsen,"26A Cove Road, Waipu, Northland, 0510, New Zealand",0.0,0.0,,Nathan Walker,Complete
RS18877,Building Northland Ltd - Browne 221 Oakura Road,"221 Oakura Road, Ōakura, Northland, 0184, New Zealand",0.0,0.0,,Harry Lee,Complete
RS18872,MOE - Te Kāpehu Whetū Kura,"50 and 78 Tarewa Road, Whangārei, Northland, 0110, New Zealand",0.0,0.0,,Matthew Jacobson,Active
RS18871,Arco Group Ltd -Salesyards Rd,"XX Saleyards Road, Kauri, Northland, 0185, New Zealand",0.0,0.0,,Matthew Jacobson,Design
RS18870,MOE - Ohaeawai Primary School BoT,"22 Tennyson Street, Ōhaeawai, Northland, 0472, New Zealand",0.0,0.0,,Harry Lee,Complete
RS18869,North Port Coolstores (1989) Ltd - 345 Port Road,"345 Port Road, Whangārei, 0110",0.0,0.0,,Matthew Hargood,Design
RS18868,Bella Homes - Walker - 66 Onekainga Rise,"66 Onekainga Rise, Whananaki, Northland, 0181, New Zealand",-35.486171,174.442929,,Matthew Hargood,Construction
RS18867,Advance Build Ltd - 5 Couper Rise,"5 Couper Rise, Tutukaka, Northland, 0173, New Zealand",0.0,0.0,,Matthew Jacobson,Complete
RS18866,MOE - Mangawahai Beach School,"34 Insley Street, Mangawhai, Northland, 0505, New Zealand",0.0,0.0,,Rachel Wright,Active
RS18864,Whangarei Seventh-day Adventist Church - 14 Mill Road,"14 Mill Road, Whangārei, Northland, 0112, New Zealand",0.0,0.0,,Matthew Hargood,Design
RS18862,Liz McKenzie - 64 Whau Valley Road,"64 Whau Valley Road, Whangārei, 0112",0.0,0.0,,Matthew Jacobson,Design
RS18860,ASCH Enterprise Ltd - 5 Amber Drive,"5 Amber Drive, Whangārei, 0112",0.0,0.0,,Matthew Jacobson,Construction
RS18858,Matira Invest Ltd - 31 Riverside Drive,"31 Riverside Drive, Whangārei, 0112",0.0,0.0,,Matthew Jacobson,Complete
RS18856,Sam Halangahu - Kolosi Family Home,"90 Manuka Road, Auckland, Auckland, 0629, New Zealand",0.0,0.0,,Logan Holt,Active
RS18855,GJ Gardner Homes - McCormick 64 Marsden Point Road,"64 Marsden Point Road, Ruakākā, Northland, 0116, New Zealand",0.0,0.0,,Liam Crawford,Not proceeding
RS18854,Ian Hanmore - 1 Te Kokoru Place,"1 Te Kokoru Place, Ngunguru, 0173",0.0,0.0,,Matthew Jacobson,Design
RS18851,Bruce & Kim Rogers - 1 Davis Crescent,"1 Davis Crescent, Paihia, Northland, 0200",0.0,0.0,,Sarah Scott,Design
RS18849,Classic Builders - Brunker 6 Te Kokoru Place,"6 Te Kokoru Place, Ngunguru, Northland, 0173",0.0,0.0,,Sarah Scott,Design
RS18847,GJ Gardner Homes - Susan Steedman 35 Seascape Crescent,"35 Seascape Crescent, Waipu, Northland, 0582",0.0,0.0,,Liam Crawford,Design
RS18846,GJ Gardner Homes - B Singh 40 Tironui Drive,"40 Tironui Drive, Whangārei, Northland, 0179, New Zealand",0.0,0.0,,Liam Crawford,Complete
RS18845,Signature Homes - Searle Trust 1243 State Highway 12,"1243 State Highway 12, Northland, 0373",-35.450428,173.5268,,Nathan Walker,Consent pending
RS18843,Greenstar Properties - 34 South End Ave,"34 South End Avenue, Whangārei, Northland, 0110, New Zealand",0.0,0.0,,Matthew Jacobson,Active
RS18841,"John, Harry and Michele Oudenhoven - 328 Wainui Road","328 Wainui Road, Kaeo, Northland, 0478",0.0,0.0,,Sarah Scott,Design
RS18838,Te Waka Pupuri Pūtea Trust - Housing Donald Road,"XX Donald Road, Kaitaia, Northland, New Zealand",0.0,0.0,,Matthew Jacobson,Construction
RS18837,Waima Topu B Trust - State Highway 12,"XX State Highway 12, Waimā, Northland, New Zealand",0.0,0.0,,Matthew Jacobson,Active
RS18835,John & Heather Wilkinson - 963 Hukerenui Road,"963 Hukerenui Road, Hūkerenui, Northland, 0182",0.0,0.0,,Matthew Jacobson,Active
RS18833,Alaistair B Smith - 127 Ota Point Road,"127 Ota Point Road, Whangaroa, Northland, 0478",0.0,0.0,,Matthew Jacobson,Design
RS18829,PCM - Fokerd & Burden - Mahinepua,"62 Rhodes Way, Kaeo, Kaeo, 0478, New Zealand",-34.999717,173.83316,,Matthew Hargood,Active
RS18827,Lisa Looi - 17 Blue Moon Rise,"17 Blue Moon Rise, Langs Beach, Northland, 0582, New Zealand",0.0,0.0,,Matthew Hargood,Complete
RS18826,Oak River Ltd,"519 Kara Road, Maungatapere, Northland, 0179, New Zealand",0.0,0.0,,Matthew Jacobson,Active
RS18825,Design Tribe - Whakapara Marae,"38 Puhipuhi Road, Whakapara, Northland, 0182, New Zealand",0.0,0.0,,Matthew Jacobson,Defects/PS4
RS18817,School Road Properties - Inclinator,"3 Totara Heights Way, Paihia, Northland, 0200, New Zealand",0.0,0.0,,Daniel Squires,Complete
RS18816,RG & MA Dudley,"8 Pearson Road, Maungatapere, Northland, 0179, New Zealand",0.0,0.0,,Matthew Jacobson,Design
RS18815,Signature Homes - Peters,"4 Park Avenue, Mangawhai, Northland, 0505, New Zealand",0.0,0.0,,Harry Lee,Complete
RS18812,Jagannath & Co Ltd,"Kirikopuni Road, Parakao, Northland, 0172, New Zealand",0.0,0.0,,Matthew Jacobson,Complete
RS18811,Christine E Walker,"105 Port Road, Whangārei, Northland, 0110, New Zealand",0.0,0.0,,Matthew Hargood,Complete
RS18809,CVC Holding Ltd,"125 Wairau Drive, Whangārei, Northland, 0112, New Zealand",0.0,0.0,,Sarah Scott,Construction
RS18808,L McNab - 1836 Diggers Valley Rd,"1836 Diggers Valley Road, Kaitaia, Northland, 0481, New Zealand",-35.17627,173.318954,,Matthew Hargood,Not proceeding
RS18807,Allan Roche,"17C Pearson Street, Mangawhai, Northland, 0505, New Zealand",0.0,0.0,,Matthew Hargood,Construction
RS18801,Signature Homes - Evitt,"XX Whananaki North Road, Hikurangi, Northland, New Zealand",0.0,0.0,,Nathan Walker,Complete
RS18800,"Wayne Allen - Millbrook Road, Waipu - Proposed Dwelling","Millbrook Road, Waipu, Northland, 0582, New Zealand",0.0,0.0,,Matthew Jacobson,Construction
RS18799,Hayden Barrett Family Trust,"26 and 32 Valley Road, Hikurangi, Northland, 0114, New Zealand",0.0,0.0,,David Platt,Active
RS18797,Clive & Julie Wood,"3 Grey Heron Close, Mangawhai, Northland, 0573, New Zealand",0.0,0.0,,Logan Holt,Not proceeding
RS18796,Ron Esveld,"1151 Cove Road, Langs Beach, Northland, 0582, New Zealand",0.0,0.0,,David Platt,Active
RS18794,F Yovich,"13 Carr Street, Whangārei, Northland, 0112, New Zealand",0.0,0.0,,Matthew Jacobson,Active
RS18792,MOE - Whangarei Heads School,"28 Whangarei Heads School Road, Whangārei Heads, Northland, 0174, New Zealand",0.0,0.0,,Harry Lee,Active
RS18787,Hans & Florence Smith,"490B Waimate North Road, Kerikeri, Northland, 0293, New Zealand",0.0,0.0,,Harry Lee,Consent pending
RS18786,Signature Homes - Coates,"72 Rock Ridge Drive, Whangārei, Northland, 0112, New Zealand",0.0,0.0,,Nathan Walker,Complete
RS18785,Homeworld - Ming,"36 Ngahere Drive, Whangārei, Northland, 0110, New Zealand",0.0,0.0,,Matthew Hargood,Complete
RS18784,Northland Cricket Assoc,"79 Okara Drive, Whangārei, Northland, 0110, New Zealand",0.0,0.0,,Liam Crawford,Consent pending
RS18782,Classic Builders - Parker,"285 Massey Road, Waipu, Northland, 0582, New Zealand",0.0,0.0,,Sarah Scott,Construction
RS18781,Far North District Council,"XX Church Road, Kaitaia, Northland, New Zealand",0.0,0.0,,Matthew Jacobson,Active
RS18774,Russell Chambers,"253 Pataua South Road, Pataua South, Northland, 0192, New Zealand",0.0,0.0,,Matthew Jacobson,Complete
RS18772,MOE - Whangaruru School,"2916 Russell Road, Punaruku, Northland, 0184, New Zealand",0.0,0.0,,Matthew Jacobson,Active
RS18771,Classic Builders - Stage 2 Glenbervie Park,"XX Sands Road, Glenbervie, Northland, New Zealand",0.0,0.0,,Sarah Scott,Consent pending
RS18770,Roman Catholic Bishop of the Diocese of Auckland,"20 Pompallier Estate Drive, Whangārei, Northland, 0110, New Zealand",0.0,0.0,,Matthew Jacobson,Complete
RS18769,GJ Gardner Homes - Sasson & Fairley,"30 Dalkeith Drive, Kauri, Northland, 0185, New Zealand",0.0,0.0,,Liam Crawford,Design
RS18767,MOE - Bay of Islands College BoT - F block,"1-9 Derrick Road, Kawakawa, Northland, 0210, New Zealand",0.0,0.0,,Liam Crawford,Consent pending
RS18766,Sean Liddle,"10 Whareora Road, Whangārei, Northland, 0112, New Zealand",0.0,0.0,,Matthew Hargood,Complete
RS18761,MOE - Matarau School (Structural),"124 Matarau Road, Matarau, Northland, 0185, New Zealand",0.0,0.0,,Logan Holt,Construction
RS18757,Martin Duff,"144 Tavinor Road, Otaika, Northland, 0170, New Zealand",0.0,0.0,,Harry Lee,Complete
RS18754,MOE - Kaikohe West School,"23 Tawanui Road, Kaikohe, Northland, 0405, New Zealand",0.0,0.0,,Liam Crawford,Active
RS18751,Artura Developments,"8 Dinniss Avenue, Whangārei, Northland, 0112, New Zealand",0.0,0.0,,Matthew Jacobson,Design
RS18749,Engineering New Zealand NZCRS,"Various, New Zealand",0.0,0.0,,Rachel Wright,Active
RS18748,Bream Bay College - BBC HA Block,"2 Peter Snell Road, Ruakākā, Northland, 0116, New Zealand",-35.876358,174.455551,,Liam Crawford,Design
RS18746,Parkview Waters Residents Association,"5 Park Crescent, Mangawhai, Northland, 0505, New Zealand",0.0,0.0,,Matthew Jacobson,Active
RS18742,A & C McCulloch - Lot 3,"42 Mains Avenue, Whangārei, Northland, 0112, New Zealand",0.0,0.0,,Sarah Scott,Design
RS18740,Olga Bucan,"5 Aqua View Drive, Waipu, Northland, 0582, New Zealand",0.0,0.0,,Matthew Hargood,Construction
RS18739,Casey Campbell,"1070B Wainui Road, Kaeo, Northland, 0478, New Zealand",0.0,0.0,,Matthew Hargood,Construction
RS18737,Estate of M S Forshaw,"5 Munro Street, Whangārei, Northland, 0110, New Zealand",0.0,0.0,,Rachel Wright,Complete
RS18734,Far North Holdings Ltd - Opononi 4 Square,"29 State Highway 12, Opononi, Northland, 0473, New Zealand",0.0,0.0,,Rachel Wright,Complete
RS18729,Parvus Holdings,"263 Kerikeri Inlet Road, Kerikeri, Northland, 0230, New Zealand",0.0,0.0,,Sarah Scott,Active
RS18728,PCM - Skipworth Bowron - 1544 Ngunguru Rd,"1544 Ngunguru Road, Ngunguru, Ngunguru, 0173, New Zealand",-35.63985,174.466782,,Harry Lee,Complete
RS18725,Classic Builders - Bowker & Hughes,"45A Landowners Lane, Tutukaka, Northland, 0173, New Zealand",0.0,0.0,,Sarah Scott,Complete
RS18721,Duncan Lucas,"6 Matapiko Road, Whananaki, Northland, 0181, New Zealand",0.0,0.0,,Harry Lee,Consent pending
RS18719,Samuel Fitzgerald & Claire Verner,"55 Lake Road, Te Arai, Auckland, 0975, New Zealand",0.0,0.0,,Logan Holt,Finished
RS18716,Lisa Burton,"22 Ngunguru Road, Glenbervie, Northland, 0173, New Zealand",0.0,0.0,,Sarah Scott,Active
RS18711,Signature Homes - Sin Yee Phang,"3 Country Heights Terrace, Kaiwaka, Northland, 0573, New Zealand",-36.194622,174.3808,,David Platt,Active
RS18699,GJ Gardner Homes - Wethey,"11 Piwaiwaka Way, Tutukaka, Northland, 0173, New Zealand",0.0,0.0,,Liam Crawford,Construction
RS18697,Signature Homes - Shead,"90 Whangaumu Street, Tutukaka, Northland, 0173, New Zealand",0.0,0.0,,Nathan Walker,Complete
RS18694,Troy Churton,"50 Marlin Drive, Taupō Bay, Northland, 0494, New Zealand",0.0,0.0,,Codie Hay,Complete
RS18687,Classic Builders - Hyland 17 Te Kokoru Pl,"17 Te Kokoru Place, Ngunguru, Northland, 0173, New Zealand",0.0,0.0,,Sarah Scott,Active
RS18676,Mike Lee  & Min Williams,"51 Stuart Road, Whangārei Heads, Northland, 0174, New Zealand",0.0,0.0,,Matthew Jacobson,Active
RS18675,Alan Merry,"53 Stuart Road, Whangārei Heads, Northland, 0174, New Zealand",0.0,0.0,,Matthew Jacobson,Design
RS18673,Bill Roberts,"10 Cameron Street, Whangārei, Northland, 0110, New Zealand",0.0,0.0,,Rachel Wright,Complete
RS18672,McGrath Stock & Poultry,"71 Lambert Road, Purua, Northland, 0176, New Zealand",0.0,0.0,,Matthew Jacobson,Construction
RS18666,Mike Hutcheson,"530B Pahi Road, Pahi, Northland, 0571, New Zealand",-36.1462,174.219086,,David Platt,Active
RS18664,Fraser Cranston,"37 Tahere Road, Whareora, Northland, 0175, New Zealand",0.0,0.0,,Sarah Scott,Design
RS18659,Homeworld - Wilkinson,"6B Pentland Road, Whangārei, Northland, 0112, New Zealand",0.0,0.0,,Matthew Hargood,Complete
RS18650,A & C McCulloch - Lot 2,"42 Mains Avenue, Whangārei, Northland, 0112, New Zealand",0.0,0.0,,Sarah Scott,Design
RS18648,Matakohe Estates Ltd,"Gillon Road, Matakohe, Matakohe, 0594, New Zealand",-36.095912,174.161621,,Matthew Jacobson,Design
RS18647,Paul Hayman,"277 Wainui Road, Kaeo, Northland, 0478, New Zealand",0.0,0.0,,Sarah Scott,Design
RS18645,Otaika Valley Free Range,"725 State Highway 1, Whangārei, Northland, 0178, New Zealand",0.0,0.0,,Matthew Jacobson,Design
RS18642,Natasja Meisner & James Woolhouse,"2 Wood Street, Waiotira, Northland, 0193, New Zealand",0.0,0.0,,David Platt,Active
RS18638,Gary Young,"383 State Highway 1, Otaika, Northland, 0178, New Zealand",0.0,0.0,,Matthew Jacobson,Active
RS18637,Classic Builders - Tim Cashmore,"78 Austin Road, Whangārei, Northland, 0110, New Zealand",0.0,0.0,,Sarah Scott,Complete
RS18636,Gary & Rachel McCoubrey,"511 Manawaora Road, Parekura Bay, Northland, 0184, New Zealand",0.0,0.0,,Matthew Hargood,Active
RS18627,MOE - Manaia View School BoT,"64 Murdoch Crescent, Whangārei, Northland, 0110, New Zealand",0.0,0.0,,Harry Lee,Complete
RS18626,MOE - Oromahoe School of Trustees  - Block 1,"XX Oromahoe School Road, Oromahoe, Northland, 0472, New Zealand",0.0,0.0,,Liam Crawford,Construction
RS18625,"MOE - Kamo Intermediate School - 2,3,5 ILE Classroom","10 Hailes Road, Whangārei, Northland, 0112, New Zealand",-35.688076,174.3056,,Harry Lee,Active
RS18624,MOE - Te Kura o Waikare BOT - Library,"XX Waikare Valley Road, Kawakawa, Northland, 0283, New Zealand",0.0,0.0,,Rachel Wright,Complete
RS18623,Aaron Smylie,"24 Darch Point Road, Whangārei Heads, Northland, 0174, New Zealand",0.0,0.0,,Matthew Jacobson,Design
RS18620,Jonathon Bacon,"105 Tahunatapu Road, Parua Bay, Northland, 0174, New Zealand",0.0,0.0,,Matthew Jacobson,Design
RS18617,Classic Builders,"XX Evergreen Place, Whangārei, Northland, 0110, New Zealand",0.0,0.0,,Sarah Scott,Complete
RS18609,Mary & Ruben Miller,"36 Lang Road, Langs Beach, Northland, 0582, New Zealand",0.0,0.0,,Matthew Jacobson,Design
RS18608,"School Road Properties - 6 Wallace Lane, Paihia","6 Wallace Lane, Paihia, Paihia, 0200, New Zealand",0.0,0.0,,Rachel Wright,Complete
RS18606,Chloe Stenberg and Marlo Bracey,"1288A Pataua North Road, Pataua North, Northland, 0175, New Zealand",0.0,0.0,,Liam Crawford,Consent pending
RS18603,Golden Homes - Jamie Jordan Investments,"52A Morningside Road, Whangārei, Northland, 0110, New Zealand",0.0,0.0,,Codie Hay,Complete
RS18597,Alan Willett - Boat shed and Pool,"194C Tern Point, Mangawhai, Northland, 0975, New Zealand",0.0,0.0,,Logan Holt,Construction
RS18587,Classic Builders - Whangarei Accessible Housing Trust,"2 Cartwright Road, Whangārei, Northland, 0110, New Zealand",0.0,0.0,,Sarah Scott,Design
RS18585,Scott Coutts,"9b Tawhai Place, Whangārei, Northland, 0112, New Zealand",0.0,0.0,,Matthew Jacobson,Complete
RS18577,Raewyn Tipene,"144 Timperley Road, Parua Bay, Northland, 0174, New Zealand",0.0,0.0,,Matthew Jacobson,Design
RS18572,GJ Gardner Homes - Habitat for Humanity,"101, 103 and 105 Maunu Road, Whangārei, Northland, 0110, New Zealand",0.0,0.0,,Liam Crawford,Active
RS18570,The Church of Jesus Christ of Latter-Day Saints,"7 Kings Road, Paihia, Paihia, 0200, New Zealand",-35.285064,174.094833,,Daniel Squires,Pending Invoice
RS18566,Thomas Blaza,"220 Marsden Point Road, Ruakākā, Northland, 0116, New Zealand",0.0,0.0,,Harry Lee,Construction
RS18564,MOE - Otamatea High School LSPM,"120 Bickerstaffe Road, Maungaturoto, 0587, New Zealand",-36.11669,174.364746,,Matthew Jacobson,Active
RS18562,Dry Design Ltd,"19 and 21 Matai Street, Whangārei, Northland, 0112, New Zealand",0.0,0.0,,Matthew Jacobson,Design
RS18556,Graeme Quigley,"456 Wharau Road, Kerikeri, Northland, 0293, New Zealand",0.0,0.0,,Matthew Jacobson,Active
RS18555,MOE - Whangarei Intermediate - Whare,"32 Rust Avenue, Whangārei, Northland, 0112, New Zealand",0.0,0.0,,Harry Lee,Construction
RS18553,Antipodes Trust,"275 Cove Road, Waipu, Northland, 0582, New Zealand",0.0,0.0,,Logan Holt,Defects/PS4
RS18542,MOE - Otaika Valley School -  Block 1,"11 Valley View Road, Whangārei, Northland, 0170, New Zealand",0.0,0.0,,Rachel Wright,Complete
RS18539,Tim Manning,"662 Cove Road, Waipu, Northland, 0582, New Zealand",0.0,0.0,,Matthew Hargood,Construction
RS18528,Greg Misiepo,"26 Crawford Crescent, Whangārei, Northland, 0112, New Zealand",0.0,0.0,,Matthew Hargood,Complete
RS18524,Craigs Investment Partners - 71 Bank St,"71 Bank Street, Whangārei, Northland, 0110, New Zealand",-35.723667,174.319733,,Daniel Squires,Construction
RS18523,WDC - Rob Turner,"Various, New Zealand",0.0,0.0,,Rachel Wright,Complete
RS18518,Nick & Camilla Forster,"83 Parsons Road, Whakapara, Northland, 0182, New Zealand",0.0,0.0,,Liam Crawford,Complete
RS18506,R Stallworthy/Kathryn Faulkner,"37 Te Rongo Road, Parua Bay, Northland, 0174, New Zealand",0.0,0.0,,Logan Holt,Construction
RS18502,Marilyn & Ashley Aragon,"8 Fairburn Street, Whangārei, Northland, 0110, New Zealand",0.0,0.0,,Sarah Scott,Consent pending
RS18500,Kaipara District Council,"Various, New Zealand",0.0,0.0,,Rachel Wright,Active
RS18477,Steve & Michele Cavanagh,"503 Old Woodcocks Road, Kaipara Flats, Auckland, 0981, New Zealand",0.0,0.0,,Harry Lee,Complete
RS18475,Nick & Chelsea Cullen,"16 Eric Wakelin Lane, Whangārei, Northland, 0112, New Zealand",0.0,0.0,,David Platt,Complete
RS18473,Peter & Tracy Worsfold,"88 William Hawken Lane, Maungatapere, Northland, 0179, New Zealand",0.0,0.0,,Sarah Scott,Construction
RS18461,Catherin Lo-Giacco & Stephen Iremonger,"155 Hihi Road, Mangōnui, Northland, 0494, New Zealand",0.0,0.0,,Matthew Hargood,Construction
RS18457,MOE - Whangarei Heads School Block 3a,"28 Whangarei Heads School Road, Whangārei Heads, Northland, 0174, New Zealand",0.0,0.0,,Rachel Wright,Complete
RS18445,Classic Builders - Sands Road Stage 1,"Sands Road, Glenbervie, Glenbervie, New Zealand",0.0,0.0,,Sarah Scott,Construction
RS18434,Lance & Jenny Pearson,"12 Gazelle Way, Langs Beach, Northland, 0582, New Zealand",0.0,0.0,,Matthew Jacobson,Complete
RS18431,EUO 71 Moir Inc,"71 Moir Street, Mangawhai, Northland, 0505, New Zealand",0.0,0.0,,Matthew Jacobson,Active
RS18424,Te Kura Kaupapa Maori o Te Rawhitiroa BOT,"42 Vinegar Hill Road, Whangārei, 0112",0.0,0.0,,Harry Lee,Complete
RS18418,Te Kura o Otangarei BOT,"189 William Jones Drive, Whangārei, Northland, 0112, New Zealand",0.0,0.0,,Matthew Hargood,Active
RS18401,Kiren & Deb Bhana,"12 Ara Lane, Kerikeri, Northland, 0230, New Zealand",0.0,0.0,,Sarah Scott,Consent pending
RS18399,Rowena Smith,"4 Glover Place, Whangārei, Northland, 0110, New Zealand",0.0,0.0,,Sarah Scott,Consent pending
RS18369,Rebekah & Thomas Masters,"49 Main Road, Kauri, Northland, 0185, New Zealand",0.0,0.0,,Sarah Scott,Consent pending
RS18368,PCM - MacDonald - 20 Thomas Elmsley Way,"20 Thomas Elmsley Way, Maungatapere, Maungatapere, 0179, New Zealand",-35.7579,174.203949,,Matthew Hargood,Construction
RS18361,GJ Gardner- Tambourine Trust,"8 Miro Street, Whangārei, Northland, 0112, New Zealand",0.0,0.0,,Codie Hay,Design
RS18360,Josh Hoddle,"1052 Cove Road, Langs Beach, Northland, 0582, New Zealand",-36.038585,174.521423,,Matthew Hargood,Complete
RS18357,Classic Builders-Whangarei Accessible Housing Trust,"64 Ngunguru Road, Glenbervie, Northland, 0173, New Zealand",-35.679634,174.3401,,Sarah Scott,Consent pending
RS18338,Noel Davies,"20 Gazelle Way, Langs Beach, Northland, 0582, New Zealand",-36.049575,174.545135,,Logan Holt,Construction
RS18322,Mike Beazley,"433 State Highway 1, Otaika, Northland, 0178, New Zealand",-35.768714,174.314545,,David Platt,Active
RS18310,Golden Homes - Jose & Thomas,"Harrison Drive, Tikipunga, Whangārei, 0112, New Zealand",-35.676052,174.3248,,Sarah Scott,Consent pending
RS18291,"Sasha Wilson & John Walters - 12 Amelie Pl, Coopers Beach","12 Amelie Place, Coopers Beach, Northland, 0420, New Zealand",-34.99824,173.513535,,Liam Crawford,Construction
RS18290,Jaycie Bradley & Zane Keogh,"179 Millington Road, Whangārei, Northland, 0179, New Zealand",-35.73347,174.234467,,Matthew Jacobson,Complete
RS18282,MOE - Oruaiti School BOT,"2554 State Highway 10, Mangōnui, Northland, 0494, New Zealand",0.0,0.0,,Rachel Wright,Job cancelled
RS18248,Nikau Investments Ltd,"55 Gillies Street, Kawakawa, Northland, 0210, New Zealand",-35.3802,174.066483,,Rachel Wright,Waiting on client/architect
RS18237,Bella Homes - Ronald - 7 Te Whangai Head Rd,"7 Te Whangai Head Road, Pataua North, Northland, 0175, New Zealand",-35.712,174.522446,,Matthew Hargood,Complete
RS18228,MOE -Tangiteroria School,"3069 State Highway 14, Tangiteroria, Northland, 0381, New Zealand",-35.821407,174.048233,,Rachel Wright,Complete
RS18225,Hope Presbyterian Church - Alterations,"1 Hunt Street, Whangārei, Northland, 0110, New Zealand",-35.723133,174.319412,,Matthew Hargood,Unsuccessful
RS18215,HPMT Group - Subdivision,"60 View Road, Hikurangi, Northland, 0114, New Zealand",-35.592765,174.278641,,Matthew Jacobson,Construction
RS18205,Podular Housing Systems Limited,"4 Christie Close, Pataua North, Northland, 0175, New Zealand",-35.708137,174.519226,,Matthew Jacobson,Consent pending
RS18204,Arne Strachan,"27 Sands Road, Glenbervie, Northland, 0173, New Zealand",-35.68198,174.342438,,Matthew Jacobson,Consent pending
RS18197,Sudfelt Construction,"10 Cascade Crescent, Whangārei, Northland, 0112, New Zealand",-35.676372,174.323547,,Liam Crawford,Complete
RS18172,Nick & Mikaela Aston,"21 Karoro Road, One Tree Point, Northland, 0118, New Zealand",-35.821792,174.450989,,Matthew Hargood,Complete
RS18142,Cedric & T Maria Clover,"3 Pukeatua Road, Maungatapere, Northland, 0179, New Zealand",-35.76523,174.204773,,Matthew Hargood,Complete
RS18139,Bevin & Donna MacCarthy,"455 Wiroa Road, Kerikeri, Northland, 0293, New Zealand",-35.265224,173.889435,,Matthew Hargood,Construction
RS18135,The Degani Trust,"49 Cullen Road, Waipu, Northland, 0582, New Zealand",-36.024215,174.493484,,Logan Holt,Construction
RS18131,Patrick Springford,"Monowai Place, Kensington, Whangārei, 0112, New Zealand",-35.706264,174.306931,,Matthew Jacobson,Active
RS18110,Rathbone Street (No1) Ltd,"24 Kamo Road, Whangārei, Northland, 0112, New Zealand",-35.711547,174.32254,,Matthew Jacobson,Complete
RS18086,Signature Homes - Heywood,"34 Waiparera Road, Parua Bay, Parua Bay, 0192, New Zealand",-35.716335,174.475861,,Harry Lee,Complete
RS18082,Total Gold Ltd - Ken Peters - 2307A Whangarei Heads Road,"2307A Whangarei Heads Road, Whangārei Heads, Northland, 0174, New Zealand",-35.822654,174.524445,,Matthew Jacobson,Active
RS18062,Classic Builders - Moorhouse & Haggard,"640 Crane Road, Kauri, Northland, 0185, New Zealand",-35.64758,174.293365,,Matthew Jacobson,Design
RS18060,Kevin Taylor,"Tudehope Road, Matarau, Matarau, 0185, New Zealand",-35.655532,174.217636,,Matthew Jacobson,Complete
RS18025,Murray & Rose Pyle Partnership,"308 One Tree Point Road, One Tree Point, Northland, 0118, New Zealand",-35.823036,174.452,,Matthew Jacobson,Consent pending
RS18021,Twin Coast Developments,"Sands Road, Glenbervie, Glenbervie, New Zealand",-35.683197,174.342,,Matthew Jacobson,Active
RS18014,WDC OMB,"71 Bank Street, Whangārei, Northland, 0110, New Zealand",-35.723667,174.319733,,Daniel Squires,Active
RS18001,Dennis Donaldson,"Whananaki North Road, Whananaki, Whananaki, New Zealand",-35.506816,174.423569,,Matthew Jacobson,Design
RS17996,Wiroa Properties Ltd,"18 Skippers Lane, Waipapa, Northland, 0230, New Zealand",-35.206977,173.9169,,Matthew Jacobson,Design
RS17955,MOE - Ruakaka School,"12 Sandford Road, Ruakākā, Northland, 0171, New Zealand",-35.899017,174.440811,,Rachel Wright,Construction
RS17927,ARGENTO,"98A Western Hills Drive, Whangārei, Northland, 0112, New Zealand",0.0,0.0,,Matthew Hargood,Complete
RS17923,Classic Builders - Gary & Claire Eady,"Gloyn Road, Onerahi, Whangārei, 0110, New Zealand",-35.77215,174.358292,,Matthew Jacobson,Design
RS17916,Crown Brands,"190 Waipapa Road, Kerikeri, Northland, 0230, New Zealand",-35.207225,173.942169,,Matthew Jacobson,Active
RS17909,Jason Grant,"48A Dolphin Place, Tutukaka, Northland, 0173, New Zealand",-35.631664,174.53981,,Logan Holt,Construction
RS17894,Stephen Ingram & Wendy Dove - 315 Tutukaka Block Rd,"315 Tutukaka Block Road, Tutukaka, Northland, 0173, New Zealand",0.0,0.0,,Sarah Scott,Complete
RS17869,Robyn Taylor,"2297 Whananaki North Road, Whananaki, Northland, 0181, New Zealand",0.0,0.0,,Matthew Jacobson,Design
RS17868,Megan Corney,"8 Glinks Road, Te Kōpuru, Northland, 0371, New Zealand",0.0,0.0,,Matthew Hargood,Complete
RS17860,Classic Builders - Gathercole,"24 Sando Way, One Tree Point, Northland, 0118, New Zealand",0.0,0.0,,Matthew Jacobson,Consent pending
RS17854,Jody Greed & Lisette Buckle,"42 Dundas Road, Whangārei, Northland, 0112, New Zealand",0.0,0.0,,Rachel Wright,Active
RS17835,ROBAR CIVIL NZ,"16 and 16a Russell Road, Whangārei, 0112",0.0,0.0,,Sarah Scott,Active
RS17831,Dargaville Mountview Trust,"10 Mountview Place, Dargaville, Northland, 0372, New Zealand",0.0,0.0,,Sarah Scott,Active
RS17797,Dean & Judy Sturge,"15 Taumata Close, Paihia, Northland, 0200, New Zealand",0.0,0.0,,Daniel Squires,Construction
RS17796,Okokiwi Downs Ltd,"XX Okokako Road, Waimate North, Northland, 0293, New Zealand",0.0,0.0,,Matthew Jacobson,Design
RS17731,Niche Television Ltd,"84-88 Bank Street, Whangārei, Northland, 0110, New Zealand",0.0,0.0,,Rachel Wright,Complete
RS17716,Michelle Martin,"55 Pah Road, Whangārei, Northland, 0110, New Zealand",0.0,0.0,,Matthew Jacobson,Complete
RS17663,Kevin & Julie Eddington,"190 Tern Point, Mangawhai, Northland, 0975, New Zealand",0.0,0.0,,Matthew Jacobson,Design
RS17624,Nick & Sue Barclay,"167 Gibbs Road, Whakapara, Northland, 0182, New Zealand",0.0,0.0,,Matthew Jacobson,Design
RS17589,Jeremy & Kayla Rintoul,"148 Ramp Road, Lake Ohia, Northland, 0483, New Zealand",0.0,0.0,,Matthew Hargood,Construction
RS17582,Homeworld - Montilla,"16 Tieke Place, Whangārei, Northland, 0110, New Zealand",0.0,0.0,,Matthew Hargood,Construction
RS17544,MOE - Otaika Valley School,"11 Valley View Road, Whangārei, Northland, 0170, New Zealand",0.0,0.0,,Matthew Jacobson,Design
RS17504,Kilima Family Trust,"10 Mako Street, Dargaville, Northland, 0372, New Zealand",0.0,0.0,,Matthew Jacobson,Consent pending
RS17482,BL & CL Rowe Family Trust,"623 Puketona Road, Haruru, Northland, 0204, New Zealand",0.0,0.0,,Matthew Jacobson,Design
RS17475,Ngarua Farming Ltd,"XX Akerama Road, Hūkerenui, Northland, 0182, New Zealand",0.0,0.0,,Matthew Jacobson,Active
RS17464,Bas Bakker,"118A Memorial Drive, Whangārei, Northland, 0112, New Zealand",0.0,0.0,,David Platt,Complete
RS17439,MOE - Matakohe School,"117 Matakohe East Road, Matakohe, Northland, 0593, New Zealand",0.0,0.0,,Matthew Jacobson,Design
RS17262,Marnic Trust Partnership,"23 Raihara Street, Kaikohe, Northland, 0405, New Zealand",0.0,0.0,,Matthew Hargood,Complete
RS17115,Hope Presbyterian Church - Seismic,"77 Bank Street, Whangārei, Northland, 0110, New Zealand",0.0,0.0,,Matthew Hargood,Complete
RS16968,Okokiwi Downs Ltd - Bridge,"XX Okokako Road, Waimate North, Northland, 0293, New Zealand",0.0,0.0,,Matthew Jacobson,Complete
RS16475,NRC - Kaipara Service Centre,"32 Hokianga Road, Dargaville, Northland, 0310, New Zealand",0.0,0.0,,Rachel Wright,Complete
RS16423,Bupa Care Services Ltd,"5 Kingfisher Way, Whangārei, Northland, 0112, New Zealand",0.0,0.0,,Gareth Turner,Active
RS16360,Rugby Trust / SS Trading Trust,"34 South End Avenue, Whangārei, Northland, 0110, New Zealand",0.0,0.0,,Matthew Jacobson,Active
RS16338,Rhodes S and J - 28 Kiteone Road,"28 Kiteone Road, Parua Bay, Northland, 0174, New Zealand",0.0,0.0,,Matthew Hargood,Complete
RS15968,"MLP, LLC Winery","623 Rangihoua Road, Te Tii, Northland, 0294, New Zealand",0.0,0.0,,Rachel Wright,Complete
RS15797,Salvation Army,"3-7 Aubrey Street, Whangārei, Northland, 0112, New Zealand",0.0,0.0,,Rachel Wright,Complete
RS15772,Whangarei Seventh Day Adventist Church,"14 Mill Road, Whangārei, Northland, 0112, New Zealand",0.0,0.0,,Matthew Hargood,Complete
RS13477,Gill Warren,"211 Whangarei Heads Road, Tamaterau, Northland, 0174, New Zealand",0.0,0.0,,Matthew Jacobson,Complete
RS12943,Trass Barry,"9 Fred Carr Place, One Tree Point, Northland, 0118, New Zealand",0.0,0.0,,Daniel Squires,Construction
RS12852,Advance Developments Tutukaka Marina,"XX Landowners Lane, Tutukaka, Northland, 0173, New Zealand",0.0,0.0,,Matthew Jacobson,Active
RS12654,Golden Homes Hamdy & Higson - 14 Flax Street,"14 Flax Street, Ruakākā, Northland, 0116",0.0,0.0,,Rachel Wright,Waiting on client/architect
RS12631,Bixley Emma,"194 Te Rongo Road, Parua Bay, Northland, 0174, New Zealand",0.0,0.0,,Rachel Wright,Complete
RS11687,Moureeses Bay Subdivision,"Moureeses Bay, Northland, 0181, New Zealand",0.0,0.0,,Matthew Jacobson,Active
RS10978,Waitangi National Trust,"XX Tau Henare Drive, Waitangi, Northland, 0293, New Zealand",0.0,0.0,,Rachel Wright,Complete
RS07793,Kotata - High St & Morningside Rd,"High St & Morningside Rd, Whangarei, Northland, 0110, New Zealand",0.0,0.0,,Matthew Jacobson,Active
RS19043,Gulliver - 7 Tapeka Heights Lane,"7 Tapeka Heights Lane, Russell, 0202, New Zealand",-35.247726,174.118057,,Matthew Hargood,Active
RS18653,Te Whatu Ora - 151 Maunu Road,"151 Maunu Road, Horahora, Whangārei, 0110, New Zealand",-35.73433,174.302368,,Rachel Wright,Waiting on client/architect
